country,division,district,thana,area,postal_code,latitude,longitude
Bangladesh,Barishal,Barguna,Amtali,Amtali,8710,22.08180538,90.19249692
Bangladesh,Barishal,Barguna,Bamna,Bamna,8730,22.1417742714286,90.1230914285714
Bangladesh,Barishal,Barguna,Barguna Sadar,Barguna Sadar,8700,22.1614057,90.1215241333333
Bangladesh,Barishal,Barguna,Barguna Sadar,Nali Bandar,8701,22.1417742714286,90.1230914285714
Bangladesh,Barishal,Barguna,Betagi,Betagi,8740,22.1417742714286,90.1230914285714
Bangladesh,Barishal,Barguna,Betagi,Darul Ulam,8741,22.1417742714286,90.1230914285714
Bangladesh,Barishal,Barguna,Patharghata,Kakchira,8721,22.1417742714286,90.1230914285714
Bangladesh,Barishal,Barguna,Patharghata,Patharghata,8720,22.1417742714286,90.1230914285714
Bangladesh,Barishal,Barishal,Agailzhara,Agailzhara,8240,22.6994788,90.3619401
Bangladesh,Barishal,Barishal,Agailzhara,Gaila,8241,22.6994788,90.3619401
Bangladesh,Barishal,Barishal,Agailzhara,Paisarhat,8242,22.9721441,90.080273
Bangladesh,Barishal,Barishal,Babuganj,Babuganj,8210,22.6994788,90.3619401
Bangladesh,Barishal,Barishal,Babuganj,Barishal Cadet,8216,22.6994788,90.3619401
Bangladesh,Barishal,Barishal,Babuganj,Chandpasha,8212,22.6994788,90.3619401
Bangladesh,Barishal,Barishal,Babuganj,Madhabpasha,8213,22.76802625,90.273126375
Bangladesh,Barishal,Barishal,Babuganj,Nizamuddin College,8215,22.6994788,90.3619401
Bangladesh,Barishal,Barishal,Babuganj,Rahamatpur,8211,22.6994788,90.3619401
Bangladesh,Barishal,Barishal,Babuganj,Thakur Mallik,8214,22.6994788,90.3619401
Bangladesh,Barishal,Barishal,Barajalia,Barajalia,8260,22.6994788,90.3619401
Bangladesh,Barishal,Barishal,Barajalia,Osman Manjil,8261,22.6994788,90.3619401
Bangladesh,Barishal,Barishal,Barishal Sadar,Barishal Sadar,8200,22.6843778595238,90.3687875642857
Bangladesh,Barishal,Barishal,Barishal Sadar,Bukhainagar,8201,22.6994788,90.3619401
Bangladesh,Barishal,Barishal,Barishal Sadar,Jaguarhat,8206,22.6994788,90.3619401
Bangladesh,Barishal,Barishal,Barishal Sadar,Kashipur,8205,22.6994788,90.3619401
Bangladesh,Barishal,Barishal,Barishal Sadar,Patang,8204,22.6994788,90.3619401
Bangladesh,Barishal,Barishal,Barishal Sadar,Saheberhat,8202,22.6994788,90.3619401
Bangladesh,Barishal,Barishal,Barishal Sadar,Sugandia,8203,22.6994788,90.3619401
Bangladesh,Barishal,Barishal,Gouranadi,Batajor,8233,22.8993692310345,90.3035791965517
Bangladesh,Barishal,Barishal,Gouranadi,Gouranadi,8230,22.9711911888889,90.2283354388889
Bangladesh,Barishal,Barishal,Gouranadi,Kashemabad,8232,22.6994788,90.3619401
Bangladesh,Barishal,Barishal,Gouranadi,Tarki Bandar,8231,22.6994788,90.3619401
Bangladesh,Barishal,Barishal,Mahendiganj,Langutia,8274,22.6994788,90.3619401
Bangladesh,Barishal,Barishal,Mahendiganj,Laskarpur,8271,22.6994788,90.3619401
Bangladesh,Barishal,Barishal,Mahendiganj,Mahendiganj,8270,22.6994788,90.3619401
Bangladesh,Barishal,Barishal,Mahendiganj,Nalgora,8273,22.6994788,90.3619401
Bangladesh,Barishal,Barishal,Mahendiganj,Ulania,8272,22.6994788,90.3619401
Bangladesh,Barishal,Barishal,Muladi,Charkalekhan,8252,22.6994788,90.3619401
Bangladesh,Barishal,Barishal,Muladi,Kazirchar,8251,22.6994788,90.3619401
Bangladesh,Barishal,Barishal,Muladi,Muladi,8250,22.6994788,90.3619401
Bangladesh,Barishal,Barishal,Sahebganj,Charamandi,8281,22.6994788,90.3619401
Bangladesh,Barishal,Barishal,Sahebganj,kalaskati,8284,22.6994788,90.3619401
Bangladesh,Barishal,Barishal,Sahebganj,Padri Shibpur,8282,22.6994788,90.3619401
Bangladesh,Barishal,Barishal,Sahebganj,Sahebganj,8280,22.6994788,90.3619401
Bangladesh,Barishal,Barishal,Sahebganj,Shialguni,8283,22.6994788,90.3619401
Bangladesh,Barishal,Barishal,Uzirpur,Dakuarhat,8223,22.6994788,90.3619401
Bangladesh,Barishal,Barishal,Uzirpur,Dhamura,8221,22.6994788,90.3619401
Bangladesh,Barishal,Barishal,Uzirpur,Jugirkanda,8222,22.8508039,90.0974617
Bangladesh,Barishal,Barishal,Uzirpur,Shikarpur,8224,22.6994788,90.3619401
Bangladesh,Barishal,Barishal,Uzirpur,Uzirpur,8220,22.82294705,90.25114095
Bangladesh,Barishal,Bhola,Bhola Sadar,Bhola Sadar,8300,22.6438670375,90.67775415
Bangladesh,Barishal,Bhola,Bhola Sadar,Joynagar,8301,22.5967158444444,90.5073316777778
Bangladesh,Barishal,Bhola,Borhanuddin UPO,Borhanuddin UPO,8320,22.496529,90.7192273
Bangladesh,Barishal,Bhola,Borhanuddin UPO,Mirzakalu,8321,22.5967158444444,90.5073316777778
Bangladesh,Barishal,Bhola,Charfashion,Charfashion,8340,22.18667589375,90.75910179375
Bangladesh,Barishal,Bhola,Charfashion,Dularhat,8341,22.5967158444444,90.5073316777778
Bangladesh,Barishal,Bhola,Charfashion,Keramatganj,8342,22.5967158444444,90.5073316777778
Bangladesh,Barishal,Bhola,Doulatkhan,Doulatkhan,8310,22.5718953,90.710938
Bangladesh,Barishal,Bhola,Doulatkhan,Hajipur,8311,22.5967158444444,90.5073316777778
Bangladesh,Barishal,Bhola,Hajirhat,Hajirhat,8360,22.5967158444444,90.5073316777778
Bangladesh,Barishal,Bhola,Hatshoshiganj,Hatshoshiganj,8350,22.5967158444444,90.5073316777778
Bangladesh,Barishal,Bhola,Lalmohan UPO,Daurihat,8331,22.5967158444444,90.5073316777778
Bangladesh,Barishal,Bhola,Lalmohan UPO,Gazaria,8332,22.5967158444444,90.5073316777778
Bangladesh,Barishal,Bhola,Lalmohan UPO,Lalmohan UPO,8330,22.3333501,90.7304672
Bangladesh,Barishal,Jhalokathi,Jhalokathi Sadar,Baukathi,8402,22.6364033777778,90.1252129777778
Bangladesh,Barishal,Jhalokathi,Jhalokathi Sadar,Gabha,8403,22.6364033777778,90.1252129777778
Bangladesh,Barishal,Jhalokathi,Jhalokathi Sadar,Jhalokathi Sadar,8400,22.6425635,90.20044195625
Bangladesh,Barishal,Jhalokathi,Jhalokathi Sadar,Nabagram,8401,22.6364033777778,90.1252129777778
Bangladesh,Barishal,Jhalokathi,Jhalokathi Sadar,Shekherhat,8404,22.6205628,90.10622895
Bangladesh,Barishal,Jhalokathi,Kathalia,Amua,8431,22.6364033777778,90.1252129777778
Bangladesh,Barishal,Jhalokathi,Kathalia,Kathalia,8430,22.6364033777778,90.1252129777778
Bangladesh,Barishal,Jhalokathi,Kathalia,Niamatee,8432,22.6364033777778,90.1252129777778
Bangladesh,Barishal,Jhalokathi,Kathalia,Shoulajalia,8433,22.6364033777778,90.1252129777778
Bangladesh,Barishal,Jhalokathi,Nalchhiti,Beerkathi,8421,22.6364033777778,90.1252129777778
Bangladesh,Barishal,Jhalokathi,Nalchhiti,Nalchhiti,8420,22.6364033777778,90.1252129777778
Bangladesh,Barishal,Jhalokathi,Rajapur,Rajapur,8410,22.6364033777778,90.1252129777778
Bangladesh,Barishal,Patuakhali,Bauphal,Bagabandar,8621,22.3760398,90.35521676
Bangladesh,Barishal,Patuakhali,Bauphal,Bauphal,8620,22.40105035,90.49725315
Bangladesh,Barishal,Patuakhali,Bauphal,Birpasha,8622,22.3760398,90.35521676
Bangladesh,Barishal,Patuakhali,Bauphal,Kalaia,8624,22.3756039,90.538003375
Bangladesh,Barishal,Patuakhali,Bauphal,Kalishari,8623,22.3760398,90.35521676
Bangladesh,Barishal,Patuakhali,Dashmina,Dashmina,8630,22.2832456,90.5622027
Bangladesh,Barishal,Patuakhali,Galachipa,Galachipa,8640,22.3843128,90.486890275
Bangladesh,Barishal,Patuakhali,Galachipa,Gazipur Bandar,8641,22.3760398,90.35521676
Bangladesh,Barishal,Patuakhali,Khepupara,Khepupara,8650,21.9897493,90.2228075
Bangladesh,Barishal,Patuakhali,Khepupara,Mahipur,8651,22.3760398,90.35521676
Bangladesh,Barishal,Patuakhali,Patuakhali Sadar,Dumkee,8602,22.4654801976744,90.3828595046512
Bangladesh,Barishal,Patuakhali,Patuakhali Sadar,Moukaran,8601,22.3760398,90.35521676
Bangladesh,Barishal,Patuakhali,Patuakhali Sadar,Patuakhali Sadar,8600,22.3540867681818,90.3386862590909
Bangladesh,Barishal,Patuakhali,Patuakhali Sadar,Rahimabad,8603,22.3760398,90.35521676
Bangladesh,Barishal,Patuakhali,Subidkhali,Subidkhali,8610,22.3622797,90.2157495
Bangladesh,Barishal,Pirojpur,Banaripara,Banaripara,8530,22.6096685375,90.0815343258109
Bangladesh,Barishal,Pirojpur,Banaripara,Chakhar,8531,22.78137855,90.00543797
Bangladesh,Barishal,Pirojpur,Bhandaria,Bhandaria,8550,22.4848224,90.0600712
Bangladesh,Barishal,Pirojpur,Bhandaria,Dhaoa,8552,22.78137855,90.00543797
Bangladesh,Barishal,Pirojpur,Bhandaria,Kanudashkathi,8551,22.78137855,90.00543797
Bangladesh,Barishal,Pirojpur,kaukhali,Jolagati,8513,22.78137855,90.00543797
Bangladesh,Barishal,Pirojpur,kaukhali,Joykul,8512,22.78137855,90.00543797
Bangladesh,Barishal,Pirojpur,kaukhali,Kaukhali,8510,22.6223123117647,90.0643565411765
Bangladesh,Barishal,Pirojpur,kaukhali,Keundia,8511,22.78137855,90.00543797
Bangladesh,Barishal,Pirojpur,Mathbaria,Betmor Natun Hat,8565,22.78137855,90.00543797
Bangladesh,Barishal,Pirojpur,Mathbaria,Gulishakhali,8563,22.78137855,90.00543797
Bangladesh,Barishal,Pirojpur,Mathbaria,Halta,8562,22.78137855,90.00543797
Bangladesh,Barishal,Pirojpur,Mathbaria,Mathbaria,8560,22.291689975,89.968578825
Bangladesh,Barishal,Pirojpur,Mathbaria,Shilarganj,8566,22.78137855,90.00543797
Bangladesh,Barishal,Pirojpur,Mathbaria,Tiarkhali,8564,22.78137855,90.00543797
Bangladesh,Barishal,Pirojpur,Mathbaria,Tushkhali,8561,22.78137855,90.00543797
Bangladesh,Barishal,Pirojpur,Nazirpur,Nazirpur,8540,22.78137855,90.00543797
Bangladesh,Barishal,Pirojpur,Nazirpur,Sriramkathi,8541,22.78137855,90.00543797
Bangladesh,Barishal,Pirojpur,Pirojpur Sadar,Hularhat,8501,22.78137855,90.00543797
Bangladesh,Barishal,Pirojpur,Pirojpur Sadar,Parerhat,8502,22.78137855,90.00543797
Bangladesh,Barishal,Pirojpur,Pirojpur Sadar,Pirojpur Sadar,8500,22.571957,89.9720518333333
Bangladesh,Barishal,Pirojpur,Swarupkathi,Darus Sunnat,8521,22.78137855,90.00543797
Bangladesh,Barishal,Pirojpur,Swarupkathi,Jalabari,8523,22.78137855,90.00543797
Bangladesh,Barishal,Pirojpur,Swarupkathi,Kaurikhara,8522,22.754885,90.0862571
Bangladesh,Barishal,Pirojpur,Swarupkathi,Swarupkathi,8520,22.78137855,90.00543797
Bangladesh,Chittagong,Bandarban,Alikadam,Alikadam,4650,22.17850755,92.20933465
Bangladesh,Chittagong,Bandarban,Bandarban Sadar,Bandarban Sadar,4600,22.17850755,92.20933465
Bangladesh,Chittagong,Bandarban,Lama,Lama,4641,22.17850755,92.20933465
Bangladesh,Chittagong,Bandarban,Naikhingchhari,Naikhongchhari,4660,22.17850755,92.20933465
Bangladesh,Chittagong,Bandarban,Roangchhari,Roangchhari,4610,22.17850755,92.20933465
Bangladesh,Chittagong,Bandarban,Ruma,Ruma,4620,22.17850755,92.20933465
Bangladesh,Chittagong,Bandarban,Thanchi,Thanchi,4630,22.17850755,92.20933465
Bangladesh,Chittagong,Brahmanbaria,Akhaura,Akhaura,3450,23.96555614,91.21308966
Bangladesh,Chittagong,Brahmanbaria,Akhaura,Azampur,3451,23.9691452,91.1104549
Bangladesh,Chittagong,Brahmanbaria,Akhaura,Gangasagar,3452,23.9691452,91.1104549
Bangladesh,Chittagong,Brahmanbaria,Banchharampur,Banchharampur,3420,23.9691452,91.1104549
Bangladesh,Chittagong,Brahmanbaria,Brahamanbaria Sadar,Ashuganj,3402,23.9691452,91.1104549
Bangladesh,Chittagong,Brahmanbaria,Brahamanbaria Sadar,Ashuganj Share,3403,23.9691452,91.1104549
Bangladesh,Chittagong,Brahmanbaria,Brahamanbaria Sadar,Brahamanbaria Sadar,3400,23.9471727466667,91.1002167
Bangladesh,Chittagong,Brahmanbaria,Brahamanbaria Sadar,Poun,3404,23.9691452,91.1104549
Bangladesh,Chittagong,Brahmanbaria,Brahamanbaria Sadar,Talshahar,3401,23.9691452,91.1104549
Bangladesh,Chittagong,Brahmanbaria,Kasba,Chandidar,3462,23.9691452,91.1104549
Bangladesh,Chittagong,Brahmanbaria,Kasba,Chargachh,3463,23.9691452,91.1104549
Bangladesh,Chittagong,Brahmanbaria,Kasba,Gopinathpur,3464,23.9691452,91.1104549
Bangladesh,Chittagong,Brahmanbaria,Kasba,Kasba,3460,23.9691452,91.1104549
Bangladesh,Chittagong,Brahmanbaria,Kasba,Kuti,3461,23.81721955,91.014970075
Bangladesh,Chittagong,Brahmanbaria,Nabinagar,Jibanganj,3419,23.9691452,91.1104549
Bangladesh,Chittagong,Brahmanbaria,Nabinagar,Kaitala,3417,23.83953615,91.05494055
Bangladesh,Chittagong,Brahmanbaria,Nabinagar,Laubfatehpur,3411,23.9691452,91.1104549
Bangladesh,Chittagong,Brahmanbaria,Nabinagar,Nabinagar,3410,23.8635692666667,90.9379876833333
Bangladesh,Chittagong,Brahmanbaria,Nabinagar,Rasullabad,3412,23.9691452,91.1104549
Bangladesh,Chittagong,Brahmanbaria,Nabinagar,Ratanpur,3414,23.9691452,91.1104549
Bangladesh,Chittagong,Brahmanbaria,Nabinagar,Salimganj,3418,23.9691452,91.1104549
Bangladesh,Chittagong,Brahmanbaria,Nabinagar,Shahapur,3415,23.9691452,91.1104549
Bangladesh,Chittagong,Brahmanbaria,Nabinagar,Shamgram,3413,23.9691452,91.1104549
Bangladesh,Chittagong,Brahmanbaria,Nasirnagar,Fandauk,3441,23.9691452,91.1104549
Bangladesh,Chittagong,Brahmanbaria,Nasirnagar,Nasirnagar,3440,23.9691452,91.1104549
Bangladesh,Chittagong,Brahmanbaria,Sarail,Chandura,3432,23.9691452,91.1104549
Bangladesh,Chittagong,Brahmanbaria,Sarail,Sarial,3430,23.9691452,91.1104549
Bangladesh,Chittagong,Brahmanbaria,Sarail,Shahbajpur,3431,24.0360461,91.1541215
Bangladesh,Chittagong,Chandpur,Chandpur Sadar,Baburhat,3602,23.2289522,90.66081159
Bangladesh,Chittagong,Chandpur,Chandpur Sadar,Chandpur Sadar,3600,23.1932267285714,90.6647913
Bangladesh,Chittagong,Chandpur,Chandpur Sadar,Puranbazar,3601,23.2198404,90.6514129
Bangladesh,Chittagong,Chandpur,Chandpur Sadar,Sahatali,3603,23.396729215,90.9727283509021
Bangladesh,Chittagong,Chandpur,Faridganj,Chandra,3651,23.396729215,90.9727283509021
Bangladesh,Chittagong,Chandpur,Faridganj,Faridganj,3650,23.396729215,90.9727283509021
Bangladesh,Chittagong,Chandpur,Faridganj,Gridkaliandia,3653,23.396729215,90.9727283509021
Bangladesh,Chittagong,Chandpur,Faridganj,Islampur Shah Isain,3655,23.396729215,90.9727283509021
Bangladesh,Chittagong,Chandpur,Faridganj,Rampurbazar,3654,23.396729215,90.9727283509021
Bangladesh,Chittagong,Chandpur,Faridganj,Rupsha,3652,23.396729215,90.9727283509021
Bangladesh,Chittagong,Chandpur,Hajiganj,Bolakhal,3611,23.396729215,90.9727283509021
Bangladesh,Chittagong,Chandpur,Hajiganj,Hajiganj,3610,23.2513029,90.8455153
Bangladesh,Chittagong,Chandpur,Hayemchar,Gandamara,3661,23.396729215,90.9727283509021
Bangladesh,Chittagong,Chandpur,Hayemchar,Hayemchar,3660,23.396729215,90.9727283509021
Bangladesh,Chittagong,Chandpur,Kachua,Kachua,3630,23.396729215,90.9727283509021
Bangladesh,Chittagong,Chandpur,Kachua,Pak Shrirampur,3631,23.396729215,90.9727283509021
Bangladesh,Chittagong,Chandpur,Kachua,Rahima Nagar,3632,23.396729215,90.9727283509021
Bangladesh,Chittagong,Chandpur,Kachua,Shachar,3633,23.367584225,90.8555127
Bangladesh,Chittagong,Chandpur,Matlobganj,Kalipur,3642,23.396729215,90.9727283509021
Bangladesh,Chittagong,Chandpur,Matlobganj,Matlobganj,3640,23.3448761944444,90.6996187611111
Bangladesh,Chittagong,Chandpur,Matlobganj,Mohanpur,3641,23.396729215,90.9727283509021
Bangladesh,Chittagong,Chandpur,Shahrasti,Chotoshi,3623,23.28709895,90.90696275
Bangladesh,Chittagong,Chandpur,Shahrasti,Islamia Madrasha,3624,23.396729215,90.9727283509021
Bangladesh,Chittagong,Chandpur,Shahrasti,Khilabazar,3621,23.396729215,90.9727283509021
Bangladesh,Chittagong,Chandpur,Shahrasti,Pashchim Kherihar Al,3622,23.28709895,90.90696275
Bangladesh,Chittagong,Chandpur,Shahrasti,Shahrasti,3620,23.2253322,90.9500961
Bangladesh,Chittagong,Chittagong,Anawara,Anowara,4376,22.4528965875,91.8501409142458
Bangladesh,Chittagong,Chittagong,Anawara,Battali,4378,23.8137443,90.372544
Bangladesh,Chittagong,Chittagong,Anawara,Paroikora,4377,22.67366729,91.63256983
Bangladesh,Chittagong,Chittagong,Boalkhali,Boalkhali,4366,22.67366729,91.63256983
Bangladesh,Chittagong,Chittagong,Boalkhali,Charandwip,4369,22.67366729,91.63256983
Bangladesh,Chittagong,Chittagong,Boalkhali,Iqbal Park,4365,22.67366729,91.63256983
Bangladesh,Chittagong,Chittagong,Boalkhali,Kadurkhal,4368,22.67366729,91.63256983
Bangladesh,Chittagong,Chittagong,Boalkhali,Kanungopara,4363,22.67366729,91.63256983
Bangladesh,Chittagong,Chittagong,Boalkhali,Sakpura,4367,22.67366729,91.63256983
Bangladesh,Chittagong,Chittagong,Boalkhali,Saroatoli,4364,22.67366729,91.63256983
Bangladesh,Chittagong,Chittagong,Chittagong Sadar,Al- Amin Baria Madra,4221,22.67366729,91.63256983
Bangladesh,Chittagong,Chittagong,Chittagong Sadar,Amin Jute Mills,4211,22.5367113375,91.8072523767458
Bangladesh,Chittagong,Chittagong,Chittagong Sadar,Anandabazar,4215,22.495759275,91.7830538392458
Bangladesh,Chittagong,Chittagong,Chittagong Sadar,Bayezid Bostami,4210,22.5339879,91.8006666892458
Bangladesh,Chittagong,Chittagong,Chittagong Sadar,Chandgaon,4212,22.532951695,91.8185748692458
Bangladesh,Chittagong,Chittagong,Chittagong Sadar,Chawkbazar,4203,22.5223011431818,91.8109546892458
Bangladesh,Chittagong,Chittagong,Chittagong Sadar,Chittagong Airport,4205,22.4720191,91.8056814059124
Bangladesh,Chittagong,Chittagong,Chittagong Sadar,Chittagong Bandar,4100,22.508171275,91.8012549007842
Bangladesh,Chittagong,Chittagong,Chittagong Sadar,Chittagong GPO,4000,22.5120553968391,91.8102129266021
Bangladesh,Chittagong,Chittagong,Chittagong Sadar,Chitt. Cantonment,4220,22.67366729,91.63256983
Bangladesh,Chittagong,Chittagong,Chittagong Sadar,Chitt. Customs Acca,4219,22.514855825,91.7852726392458
Bangladesh,Chittagong,Chittagong,Chittagong Sadar,Chitt. Politechnic In,4209,22.5247997035714,91.8043170821029
Bangladesh,Chittagong,Chittagong,Chittagong Sadar,Chitt. Sailers Colon,4218,22.482364825,91.7855855892458
Bangladesh,Chittagong,Chittagong,Chittagong Sadar,Export Processing,4223,22.5202399916667,91.7948246725791
Bangladesh,Chittagong,Chittagong,Chittagong Sadar,Firozshah,4207,22.524599125,91.7861003142458
Bangladesh,Chittagong,Chittagong,Chittagong Sadar,Halishahar,4216,22.509718715,91.7878555592458
Bangladesh,Chittagong,Chittagong,Chittagong Sadar,Halishshar,4225,22.5216226125,91.8017283267458
Bangladesh,Chittagong,Chittagong,Chittagong Sadar,Jalalabad,4214,22.5459991,91.8028205142458
Bangladesh,Chittagong,Chittagong,Chittagong Sadar,Jaldia Merine Accade,4206,22.67366729,91.63256983
Bangladesh,Chittagong,Chittagong,Chittagong Sadar,Middle Patenga,4222,22.46950925,91.7909768892458
Bangladesh,Chittagong,Chittagong,Chittagong Sadar,Mohard,4208,22.5241392416667,91.8123905725791
Bangladesh,Chittagong,Chittagong,Chittagong Sadar,North Halishahar,4226,22.67366729,91.63256983
Bangladesh,Chittagong,Chittagong,Chittagong Sadar,North Katuli,4217,22.514027725,91.8080539392458
Bangladesh,Chittagong,Chittagong,Chittagong Sadar,Pahartoli,4202,22.5168912083333,91.7905763559124
Bangladesh,Chittagong,Chittagong,Chittagong Sadar,Patenga,4204,22.476795115,91.7852060842458
Bangladesh,Chittagong,Chittagong,Chittagong Sadar,Rampura TSO,4224,22.51218875,91.7936218392458
Bangladesh,Chittagong,Chittagong,Chittagong Sadar,Wazedia,4213,22.531881075,91.7997969392458
Bangladesh,Chittagong,Chittagong,East Joara,Barma,4383,22.67366729,91.63256983
Bangladesh,Chittagong,Chittagong,East Joara,Dohazari,4382,22.67366729,91.63256983
Bangladesh,Chittagong,Chittagong,East Joara,East Joara,4380,22.67366729,91.63256983
Bangladesh,Chittagong,Chittagong,East Joara,Gachbaria,4381,22.465860675,91.9034816392458
Bangladesh,Chittagong,Chittagong,Fatikchhari,Bhandar Sharif,4352,22.67366729,91.63256983
Bangladesh,Chittagong,Chittagong,Fatikchhari,Fatikchhari,4350,22.673194125,91.7900154892458
Bangladesh,Chittagong,Chittagong,Fatikchhari,Harualchhari,4354,22.67366729,91.63256983
Bangladesh,Chittagong,Chittagong,Fatikchhari,Najirhat,4353,22.667015925,91.7877240225791
Bangladesh,Chittagong,Chittagong,Fatikchhari,Nanupur,4351,22.67366729,91.63256983
Bangladesh,Chittagong,Chittagong,Fatikchhari,Narayanhat,4355,22.67366729,91.63256983
Bangladesh,Chittagong,Chittagong,Hathazari,Chitt.University,4331,22.5766329916667,91.7894559781347
Bangladesh,Chittagong,Chittagong,Hathazari,Fatahabad,4335,22.5696273083333,91.8098941892458
Bangladesh,Chittagong,Chittagong,Hathazari,Gorduara,4332,22.67366729,91.63256983
Bangladesh,Chittagong,Chittagong,Hathazari,Hathazari,4330,22.593175225,91.7989815392458
Bangladesh,Chittagong,Chittagong,Hathazari,Katirhat,4333,22.67366729,91.63256983
Bangladesh,Chittagong,Chittagong,Hathazari,Madrasa,4339,22.67366729,91.63256983
Bangladesh,Chittagong,Chittagong,Hathazari,Mirzapur,4334,22.67366729,91.63256983
Bangladesh,Chittagong,Chittagong,Hathazari,Nuralibari,4337,22.67366729,91.63256983
Bangladesh,Chittagong,Chittagong,Hathazari,Yunus Nagar,4338,22.67366729,91.63256983
Bangladesh,Chittagong,Chittagong,Jaldi,Banigram,4393,22.400091575,91.8415977392458
Bangladesh,Chittagong,Chittagong,Jaldi,Gunagari,4392,22.67366729,91.63256983
Bangladesh,Chittagong,Chittagong,Jaldi,Jaldi,4390,22.67366729,91.63256983
Bangladesh,Chittagong,Chittagong,Jaldi,Khan Bahadur Bazar,4391,22.67366729,91.63256983
Bangladesh,Chittagong,Chittagong,Lohagara,Chaunti,4398,22.67366729,91.63256983
Bangladesh,Chittagong,Chittagong,Lohagara,Lohagara,4396,22.67366729,91.63256983
Bangladesh,Chittagong,Chittagong,Lohagara,Padua,4397,22.370279175,91.9386010392458
Bangladesh,Chittagong,Chittagong,Mirsharai,Abutorab,4321,22.67366729,91.63256983
Bangladesh,Chittagong,Chittagong,Mirsharai,Azampur,4325,22.67366729,91.63256983
Bangladesh,Chittagong,Chittagong,Mirsharai,Bharawazhat,4323,22.67366729,91.63256983
Bangladesh,Chittagong,Chittagong,Mirsharai,Darrogahat,4322,22.67366729,91.63256983
Bangladesh,Chittagong,Chittagong,Mirsharai,Joarganj,4324,22.7503874107143,91.6418635035315
Bangladesh,Chittagong,Chittagong,Mirsharai,Korerhat,4327,22.801351175,91.6680806392458
Bangladesh,Chittagong,Chittagong,Mirsharai,Mirsharai,4320,22.67366729,91.63256983
Bangladesh,Chittagong,Chittagong,Mirsharai,Mohazanhat,4328,22.67366729,91.63256983
Bangladesh,Chittagong,Chittagong,Patia Head Office,Budhpara,4371,22.471331025,91.8151659392458
Bangladesh,Chittagong,Chittagong,Patia Head Office,Patia Head Office,4370,22.485103325,91.8638337892458
Bangladesh,Chittagong,Chittagong,Rangunia,Dhamair,4361,22.67366729,91.63256983
Bangladesh,Chittagong,Chittagong,Rangunia,Rangunia,4360,22.4631867,92.0469381944093
Bangladesh,Chittagong,Chittagong,Rouzan,Beenajuri,4341,22.67366729,91.63256983
Bangladesh,Chittagong,Chittagong,Rouzan,B.I.T Post Office,4349,22.5733473488636,91.880057808564
Bangladesh,Chittagong,Chittagong,Rouzan,Dewanpur,4347,22.67366729,91.63256983
Bangladesh,Chittagong,Chittagong,Rouzan,Fatepur,4345,22.67366729,91.63256983
Bangladesh,Chittagong,Chittagong,Rouzan,Gahira,4343,22.5197223,91.8630946
Bangladesh,Chittagong,Chittagong,Rouzan,Guzra Noapara,4346,22.67366729,91.63256983
Bangladesh,Chittagong,Chittagong,Rouzan,jagannath Hat,4344,22.67366729,91.63256983
Bangladesh,Chittagong,Chittagong,Rouzan,Kundeshwari,4342,22.5363796,91.8320121
Bangladesh,Chittagong,Chittagong,Rouzan,Mohamuni,4348,22.67366729,91.63256983
Bangladesh,Chittagong,Chittagong,Rouzan,Rouzan,4340,22.609323975,91.8498498892458
Bangladesh,Chittagong,Chittagong,Sandwip,Sandwip,4300,22.67366729,91.63256983
Bangladesh,Chittagong,Chittagong,Sandwip,Shiberhat,4301,22.67366729,91.63256983
Bangladesh,Chittagong,Chittagong,Sandwip,Urirchar,4302,22.67366729,91.63256983
Bangladesh,Chittagong,Chittagong,Satkania,Baitul Ijjat,4387,22.67366729,91.63256983
Bangladesh,Chittagong,Chittagong,Satkania,Bazalia,4388,22.67366729,91.63256983
Bangladesh,Chittagong,Chittagong,Satkania,Satkania,4386,22.67366729,91.63256983
Bangladesh,Chittagong,Chittagong,Sitakunda,Barabkunda,4312,22.67366729,91.63256983
Bangladesh,Chittagong,Chittagong,Sitakunda,Baroidhala,4311,22.6813343,91.6249779
Bangladesh,Chittagong,Chittagong,Sitakunda,Bawashbaria,4313,22.5443774,91.6654024
Bangladesh,Chittagong,Chittagong,Sitakunda,Bhatiari,4315,22.5564893,91.7689656892458
Bangladesh,Chittagong,Chittagong,Sitakunda,Fouzdarhat,4316,22.67366729,91.63256983
Bangladesh,Chittagong,Chittagong,Sitakunda,Jafrabad,4317,22.39435057,91.762179887
Bangladesh,Chittagong,Chittagong,Sitakunda,Kumira,4314,22.5183407,91.7046617
Bangladesh,Chittagong,Chittagong,Sitakunda,Sitakunda,4310,22.67366729,91.63256983
Bangladesh,Chittagong,Comilla,Barura,Barura,3560,23.4090893833333,91.0415362166667
Bangladesh,Chittagong,Comilla,Barura,Murdafarganj,3562,23.4200316,91.1722702
Bangladesh,Chittagong,Comilla,Barura,Poyalgachha,3561,23.4200316,91.1722702
Bangladesh,Chittagong,Comilla,Brahmanpara,Brahmanpara,3526,23.6737022,91.0842736
Bangladesh,Chittagong,Comilla,Burichang,Burichang,3520,23.4200316,91.1722702
Bangladesh,Chittagong,Comilla,Burichang,Maynamoti bazar,3521,23.482203,91.1168357
Bangladesh,Chittagong,Comilla,Chandina,Chandia,3510,23.45186845,90.95354565
Bangladesh,Chittagong,Comilla,Chandina,Madhaiabazar,3511,23.50289993,90.93858985
Bangladesh,Chittagong,Comilla,Chouddagram,Batisa,3551,23.4200316,91.1722702
Bangladesh,Chittagong,Comilla,Chouddagram,Chiora,3552,23.4200316,91.1722702
Bangladesh,Chittagong,Comilla,Chouddagram,Chouddagram,3550,23.4267271,91.1690136
Bangladesh,Chittagong,Comilla,Comilla Sadar,Comilla Contoment,3501,23.4790509142857,91.1160887285714
Bangladesh,Chittagong,Comilla,Comilla Sadar,Comilla Sadar,3500,23.4254253741379,91.1920358698276
Bangladesh,Chittagong,Comilla,Comilla Sadar,Courtbari,3503,23.4200316,91.1722702
Bangladesh,Chittagong,Comilla,Comilla Sadar,Halimanagar,3502,23.4200316,91.1722702
Bangladesh,Chittagong,Comilla,Comilla Sadar,Suaganj,3504,23.3789051846154,91.2683958384615
Bangladesh,Chittagong,Comilla,Daudkandi,Dashpara,3518,23.4200316,91.1722702
Bangladesh,Chittagong,Comilla,Daudkandi,Daudkandi,3516,23.4200316,91.1722702
Bangladesh,Chittagong,Comilla,Daudkandi,Eliotganj,3519,23.4200316,91.1722702
Bangladesh,Chittagong,Comilla,Daudkandi,Gouripur,3517,23.6037886333333,90.7584122666667
Bangladesh,Chittagong,Comilla,Davidhar,Barashalghar,3532,23.4200316,91.1722702
Bangladesh,Chittagong,Comilla,Davidhar,Davidhar,3530,23.4200316,91.1722702
Bangladesh,Chittagong,Comilla,Davidhar,Dhamtee,3533,23.4200316,91.1722702
Bangladesh,Chittagong,Comilla,Davidhar,Gangamandal,3531,23.4200316,91.1722702
Bangladesh,Chittagong,Comilla,Homna,Homna,3546,23.68313844,90.77896052
Bangladesh,Chittagong,Comilla,Laksam,Bipulasar,3572,23.4200316,91.1722702
Bangladesh,Chittagong,Comilla,Laksam,Laksam,3570,23.2306845454545,91.1223314545454
Bangladesh,Chittagong,Comilla,Laksam,Lakshamanpur,3571,23.4200316,91.1722702
Bangladesh,Chittagong,Comilla,Langalkot,Chhariabazar,3582,23.4200316,91.1722702
Bangladesh,Chittagong,Comilla,Langalkot,Dhalua,3581,23.4200316,91.1722702
Bangladesh,Chittagong,Comilla,Langalkot,Gunabati,3583,23.0850270142857,91.2859938285714
Bangladesh,Chittagong,Comilla,Langalkot,Langalkot,3580,23.4200316,91.1722702
Bangladesh,Chittagong,Comilla,Muradnagar,Bangra,3543,23.7403976333333,91.0006898666667
Bangladesh,Chittagong,Comilla,Muradnagar,Companyganj,3542,23.4200316,91.1722702
Bangladesh,Chittagong,Comilla,Muradnagar,Muradnagar,3540,23.6441502090909,90.92706875
Bangladesh,Chittagong,Comilla,Muradnagar,Pantibazar,3545,23.4200316,91.1722702
Bangladesh,Chittagong,Comilla,Muradnagar,Ramchandarpur,3541,23.4200316,91.1722702
Bangladesh,Chittagong,Comilla,Muradnagar,Sonakanda,3544,23.4200316,91.1722702
Bangladesh,Chittagong,Cox’s Bazar,Chiringga,Badarkali,4742,21.4520238,92.0169091
Bangladesh,Chittagong,Cox’s Bazar,Chiringga,Chiringga,4740,21.7512433666667,92.0690088333333
Bangladesh,Chittagong,Cox’s Bazar,Chiringga,Chiringga S.O,4741,21.61774885,92.0684508
Bangladesh,Chittagong,Cox’s Bazar,Chiringga,Malumghat,4743,21.4520238,92.0169091
Bangladesh,Chittagong,Cox’s Bazar,Coxs Bazar Sadar,Coxs Bazar Sadar,4700,21.4384261982143,91.9749581841496
Bangladesh,Chittagong,Cox’s Bazar,Coxs Bazar Sadar,Eidga,4702,21.5159686,92.015403
Bangladesh,Chittagong,Cox’s Bazar,Coxs Bazar Sadar,Jhilanja,4701,21.41365676,92.03912578
Bangladesh,Chittagong,Cox’s Bazar,Gorakohata,Gorakohata,4710,21.4520238,92.0169091
Bangladesh,Chittagong,Cox’s Bazar,Kutubdia,Kutubdia,4720,21.8908141,91.8930134
Bangladesh,Chittagong,Cox’s Bazar,Ramu,Ramu,4730,21.4520238,92.0169091
Bangladesh,Chittagong,Cox’s Bazar,Teknaf,Hnila,4761,21.4520238,92.0169091
Bangladesh,Chittagong,Cox’s Bazar,Teknaf,St.Martin,4762,21.4520238,92.0169091
Bangladesh,Chittagong,Cox’s Bazar,Teknaf,Teknaf,4760,20.8698641333333,92.2951013333333
Bangladesh,Chittagong,Cox’s Bazar,Ukhia,Ukhia,4750,21.2566809,92.1073482666667
Bangladesh,Chittagong,Feni,Chhagalnaia,Chhagalnaia,3910,22.93017093,91.36221798
Bangladesh,Chittagong,Feni,Chhagalnaia,Daraga Hat,3912,22.93017093,91.36221798
Bangladesh,Chittagong,Feni,Chhagalnaia,Maharajganj,3911,22.93017093,91.36221798
Bangladesh,Chittagong,Feni,Chhagalnaia,Puabashimulia,3913,22.93017093,91.36221798
Bangladesh,Chittagong,Feni,Dagonbhuia,Chhilonia,3922,22.93017093,91.36221798
Bangladesh,Chittagong,Feni,Dagonbhuia,Dagondhuia,3920,22.93017093,91.36221798
Bangladesh,Chittagong,Feni,Dagonbhuia,Dudmukha,3921,22.93017093,91.36221798
Bangladesh,Chittagong,Feni,Dagonbhuia,Rajapur,3923,22.93017093,91.36221798
Bangladesh,Chittagong,Feni,Feni Sadar,Fazilpur,3901,22.8881957,91.53561825
Bangladesh,Chittagong,Feni,Feni Sadar,Feni Sadar,3900,23.0139350216216,91.3992076621622
Bangladesh,Chittagong,Feni,Feni Sadar,Laskarhat,3903,22.93017093,91.36221798
Bangladesh,Chittagong,Feni,Feni Sadar,Sharshadie,3902,22.93017093,91.36221798
Bangladesh,Chittagong,Feni,Pashurampur,Fulgazi,3942,22.93017093,91.36221798
Bangladesh,Chittagong,Feni,Pashurampur,Munshirhat,3943,23.1087649,91.4325218
Bangladesh,Chittagong,Feni,Pashurampur,Pashurampur,3940,22.93017093,91.36221798
Bangladesh,Chittagong,Feni,Pashurampur,Shuarbazar,3941,22.93017093,91.36221798
Bangladesh,Chittagong,Feni,Sonagazi,Ahmadpur,3932,22.93017093,91.36221798
Bangladesh,Chittagong,Feni,Sonagazi,Kazirhat,3933,22.93017093,91.36221798
Bangladesh,Chittagong,Feni,Sonagazi,Motiganj,3931,22.93017093,91.36221798
Bangladesh,Chittagong,Feni,Sonagazi,Sonagazi,3930,22.8460609,91.3918591
Bangladesh,Chittagong,Khagrachari,Diginala,Diginala,4420,22.9607564888889,91.9706798333333
Bangladesh,Chittagong,Khagrachari,Khagrachari Sadar,Khagrachari Sadar,4400,23.118416,91.9926467
Bangladesh,Chittagong,Khagrachari,Laxmichhari,Laxmichhari,4470,22.9607564888889,91.9706798333333
Bangladesh,Chittagong,Khagrachari,Mahalchhari,Mahalchhari,4430,22.9607564888889,91.9706798333333
Bangladesh,Chittagong,Khagrachari,Manikchhari,Manikchhari,4460,22.8515231,91.8451677
Bangladesh,Chittagong,Khagrachari,Matiranga,Matiranga,4450,23.2466549,91.8483794
Bangladesh,Chittagong,Khagrachari,Panchhari,Panchhari,4410,22.9607564888889,91.9706798333333
Bangladesh,Chittagong,Khagrachari,Ramghar Head Office,Ramghar Head Office,4440,22.9607564888889,91.9706798333333
Bangladesh,Chittagong,Lakshmipur,Char Alexgander,Char Alexgander,3730,23.10671955,90.821647
Bangladesh,Chittagong,Lakshmipur,Char Alexgander,Hajirghat,3731,23.10671955,90.821647
Bangladesh,Chittagong,Lakshmipur,Char Alexgander,Ramgatirhat,3732,23.10671955,90.821647
Bangladesh,Chittagong,Lakshmipur,Lakshimpur Sadar,Amani Lakshimpur,3709,23.10671955,90.821647
Bangladesh,Chittagong,Lakshmipur,Lakshimpur Sadar,Bhabaniganj,3702,23.10671955,90.821647
Bangladesh,Chittagong,Lakshmipur,Lakshimpur Sadar,Chandraganj,3708,22.91176145,90.9707095
Bangladesh,Chittagong,Lakshmipur,Lakshimpur Sadar,Choupalli,3707,23.10671955,90.821647
Bangladesh,Chittagong,Lakshmipur,Lakshimpur Sadar,Dalal Bazar,3701,22.9673399,90.8110292
Bangladesh,Chittagong,Lakshmipur,Lakshimpur Sadar,Duttapara,3706,23.10671955,90.821647
Bangladesh,Chittagong,Lakshmipur,Lakshimpur Sadar,Keramatganj,3704,23.10671955,90.821647
Bangladesh,Chittagong,Lakshmipur,Lakshimpur Sadar,Lakshimpur Sadar,3700,22.95087814,90.82903797
Bangladesh,Chittagong,Lakshmipur,Lakshimpur Sadar,Mandari,3703,23.10671955,90.821647
Bangladesh,Chittagong,Lakshmipur,Lakshimpur Sadar,Rupchara,3705,22.90330914,90.9387245
Bangladesh,Chittagong,Lakshmipur,Ramganj,Alipur,3721,23.10671955,90.821647
Bangladesh,Chittagong,Lakshmipur,Ramganj,Dolta,3725,23.10671955,90.821647
Bangladesh,Chittagong,Lakshmipur,Ramganj,Kanchanpur,3723,23.10671955,90.821647
Bangladesh,Chittagong,Lakshmipur,Ramganj,Naagmud,3724,23.10671955,90.821647
Bangladesh,Chittagong,Lakshmipur,Ramganj,Panpara,3722,23.10671955,90.821647
Bangladesh,Chittagong,Lakshmipur,Ramganj,Ramganj,3720,23.1089802944444,90.8820972611111
Bangladesh,Chittagong,Lakshmipur,Raypur,Bhuabari,3714,23.10671955,90.821647
Bangladesh,Chittagong,Lakshmipur,Raypur,Haydarganj,3713,23.10671955,90.821647
Bangladesh,Chittagong,Lakshmipur,Raypur,Nagerdighirpar,3712,23.10671955,90.821647
Bangladesh,Chittagong,Lakshmipur,Raypur,Rakhallia,3711,23.10671955,90.821647
Bangladesh,Chittagong,Lakshmipur,Raypur,Raypur,3710,23.0561911,90.7611689
Bangladesh,Chittagong,Noakhali,Basurhat,Basur Hat,3850,22.82407995,91.3143908
Bangladesh,Chittagong,Noakhali,Basurhat,Charhajari,3851,22.94173048,91.21165944
Bangladesh,Chittagong,Noakhali,Begumganj,Alaiarpur,3831,22.94173048,91.21165944
Bangladesh,Chittagong,Noakhali,Begumganj,Amisha Para,3847,22.94173048,91.21165944
Bangladesh,Chittagong,Noakhali,Begumganj,Banglabazar,3822,22.94173048,91.21165944
Bangladesh,Chittagong,Noakhali,Begumganj,Bazra,3824,22.94173048,91.21165944
Bangladesh,Chittagong,Noakhali,Begumganj,Begumganj,3820,22.94173048,91.21165944
Bangladesh,Chittagong,Noakhali,Begumganj,Bhabani Jibanpur,3837,22.94173048,91.21165944
Bangladesh,Chittagong,Noakhali,Begumganj,Choumohani,3821,22.9442498,91.1202972
Bangladesh,Chittagong,Noakhali,Begumganj,Dauti,3843,22.94173048,91.21165944
Bangladesh,Chittagong,Noakhali,Begumganj,Durgapur,3848,22.94173048,91.21165944
Bangladesh,Chittagong,Noakhali,Begumganj,Gopalpur,3828,22.94173048,91.21165944
Bangladesh,Chittagong,Noakhali,Begumganj,Jamidar Hat,3825,22.94173048,91.21165944
Bangladesh,Chittagong,Noakhali,Begumganj,Joyag,3844,22.94173048,91.21165944
Bangladesh,Chittagong,Noakhali,Begumganj,Joynarayanpur,3829,22.94173048,91.21165944
Bangladesh,Chittagong,Noakhali,Begumganj,Khalafat Bazar,3833,22.94173048,91.21165944
Bangladesh,Chittagong,Noakhali,Begumganj,Khalishpur,3842,22.94173048,91.21165944
Bangladesh,Chittagong,Noakhali,Begumganj,Maheshganj,3838,23.0197224090909,91.1525187272727
Bangladesh,Chittagong,Noakhali,Begumganj,Mir Owarishpur,3823,22.94173048,91.21165944
Bangladesh,Chittagong,Noakhali,Begumganj,Nadona,3839,22.94173048,91.21165944
Bangladesh,Chittagong,Noakhali,Begumganj,Nandiapara,3841,22.94173048,91.21165944
Bangladesh,Chittagong,Noakhali,Begumganj,Oachhekpur,3835,22.94173048,91.21165944
Bangladesh,Chittagong,Noakhali,Begumganj,Rajganj,3834,22.94173048,91.21165944
Bangladesh,Chittagong,Noakhali,Begumganj,Sonaimuri,3827,22.94173048,91.21165944
Bangladesh,Chittagong,Noakhali,Begumganj,Tangirpar,3832,22.94173048,91.21165944
Bangladesh,Chittagong,Noakhali,Begumganj,Thanar Hat,3845,22.94173048,91.21165944
Bangladesh,Chittagong,Noakhali,Chatkhil,Bansa Bazar,3879,22.94173048,91.21165944
Bangladesh,Chittagong,Noakhali,Chatkhil,Bodalcourt,3873,22.94173048,91.21165944
Bangladesh,Chittagong,Noakhali,Chatkhil,Chatkhil,3870,23.0625331,91.0498363
Bangladesh,Chittagong,Noakhali,Chatkhil,Dosh Gharia,3878,22.94173048,91.21165944
Bangladesh,Chittagong,Noakhali,Chatkhil,Karihati,3877,22.94173048,91.21165944
Bangladesh,Chittagong,Noakhali,Chatkhil,Khilpara,3872,22.94173048,91.21165944
Bangladesh,Chittagong,Noakhali,Chatkhil,Palla,3871,22.94173048,91.21165944
Bangladesh,Chittagong,Noakhali,Chatkhil,Rezzakpur,3874,22.94173048,91.21165944
Bangladesh,Chittagong,Noakhali,Chatkhil,Sahapur,3881,22.94173048,91.21165944
Bangladesh,Chittagong,Noakhali,Chatkhil,Sampara,3882,22.94173048,91.21165944
Bangladesh,Chittagong,Noakhali,Chatkhil,Shingbahura,3883,22.94173048,91.21165944
Bangladesh,Chittagong,Noakhali,Chatkhil,Solla,3875,22.94173048,91.21165944
Bangladesh,Chittagong,Noakhali,Hatiya,Afazia,3891,22.94173048,91.21165944
Bangladesh,Chittagong,Noakhali,Hatiya,Hatiya,3890,22.94173048,91.21165944
Bangladesh,Chittagong,Noakhali,Hatiya,Tamoraddi,3892,22.94173048,91.21165944
Bangladesh,Chittagong,Noakhali,Noakhali Sadar,Chaprashir Hat,3811,22.94173048,91.21165944
Bangladesh,Chittagong,Noakhali,Noakhali Sadar,Charam Tua,3809,22.94173048,91.21165944
Bangladesh,Chittagong,Noakhali,Noakhali Sadar,Char Jabbar,3812,22.94173048,91.21165944
Bangladesh,Chittagong,Noakhali,Noakhali Sadar,Din Monir Hat,3803,22.94173048,91.21165944
Bangladesh,Chittagong,Noakhali,Noakhali Sadar,Kabirhat,3807,22.94173048,91.21165944
Bangladesh,Chittagong,Noakhali,Noakhali Sadar,Khalifar Hat,3808,22.94173048,91.21165944
Bangladesh,Chittagong,Noakhali,Noakhali Sadar,Mriddarhat,3806,22.94173048,91.21165944
Bangladesh,Chittagong,Noakhali,Noakhali Sadar,Noakhali College,3801,22.94173048,91.21165944
Bangladesh,Chittagong,Noakhali,Noakhali Sadar,Noakhali Sadar,3800,22.8265868,91.1652862777778
Bangladesh,Chittagong,Noakhali,Noakhali Sadar,Pak Kishoreganj,3804,22.94173048,91.21165944
Bangladesh,Chittagong,Noakhali,Noakhali Sadar,Sonapur,3802,22.94173048,91.21165944
Bangladesh,Chittagong,Noakhali,Senbag,Beezbag,3862,22.891205,91.2046054
Bangladesh,Chittagong,Noakhali,Senbag,Chatarpaia,3864,22.94173048,91.21165944
Bangladesh,Chittagong,Noakhali,Senbag,Kallyandi,3861,22.94173048,91.21165944
Bangladesh,Chittagong,Noakhali,Senbag,Kankirhat,3863,22.94173048,91.21165944
Bangladesh,Chittagong,Noakhali,Senbag,Senbag,3860,22.9856109,91.2351344333333
Bangladesh,Chittagong,Noakhali,Senbag,T.P. Lamua,3865,22.94173048,91.21165944
Bangladesh,Chittagong,Rangamati,Barakal,Barakal,4570,22.64030379,92.10274373
Bangladesh,Chittagong,Rangamati,Bilaichhari,Bilaichhari,4550,22.64030379,92.10274373
Bangladesh,Chittagong,Rangamati,Jarachhari,Jarachhari,4560,22.64030379,92.10274373
Bangladesh,Chittagong,Rangamati,Kalampati,Betbunia,4511,22.64030379,92.10274373
Bangladesh,Chittagong,Rangamati,Kalampati,Kalampati,4510,22.64030379,92.10274373
Bangladesh,Chittagong,Rangamati,kaptai,Chandraghona,4531,22.64030379,92.10274373
Bangladesh,Chittagong,Rangamati,kaptai,Kaptai,4530,22.64030379,92.10274373
Bangladesh,Chittagong,Rangamati,kaptai,Kaptai Nuton Bazar,4533,22.50239515,92.2111342
Bangladesh,Chittagong,Rangamati,kaptai,Kaptai Project,4532,22.49269255,92.22062265
Bangladesh,Chittagong,Rangamati,Longachh,Longachh,4580,22.64030379,92.10274373
Bangladesh,Chittagong,Rangamati,Marishya,Marishya,4590,23.3909219,92.2855054
Bangladesh,Chittagong,Rangamati,Naniachhar,Nanichhar,4520,22.64030379,92.10274373
Bangladesh,Chittagong,Rangamati,Rajsthali,Rajsthali,4540,22.64030379,92.10274373
Bangladesh,Chittagong,Rangamati,Rangamati Sadar,Rangamati Sadar,4500,22.5922390428571,92.1373443428572
Bangladesh,Dhaka,Dhaka,Demra,Demra,1360,23.814917407,90.3486397421751
Bangladesh,Dhaka,Dhaka,Demra,Matuail,1362,23.8025357711538,90.3417982518674
Bangladesh,Dhaka,Dhaka,Demra,Sarulia,1361,23.808061035,90.3459454741751
Bangladesh,Dhaka,Dhaka,Dhaka Cantt.,Dhaka CantonmentTSO,1206,23.8591309705975,90.3021401039235
Bangladesh,Dhaka,Dhaka,Dhamrai,Dhamrai,1350,23.9107284,90.2166328591751
Bangladesh,Dhaka,Dhaka,Dhamrai,Kamalpur,1351,23.7320403,90.4887974
Bangladesh,Dhaka,Dhaka,Dhanmondi,Jigatala TSO,1209,23.8205040246835,90.2986661353144
Bangladesh,Dhaka,Dhaka,Gulshan,Banani TSO,1213,23.8250198315077,90.3421251581307
Bangladesh,Dhaka,Dhaka,Gulshan,Gulshan Model Town,1212,23.8304105626246,90.3475851291386
Bangladesh,Dhaka,Dhaka,Jatrabari,Dhania TSO,1232,23.8066986333333,90.3250915858418
Bangladesh,Dhaka,Dhaka,Joypara,Joypara,1330,23.7659407836957,90.1552692789577
Bangladesh,Dhaka,Dhaka,Joypara,Narisha,1332,23.7320403,90.4887974
Bangladesh,Dhaka,Dhaka,Joypara,Palamganj,1331,23.7320403,90.4887974
Bangladesh,Dhaka,Dhaka,Keraniganj,Ati,1312,23.7867293380952,90.2976563246882
Bangladesh,Dhaka,Dhaka,Keraniganj,Dhaka Jute Mills,1311,23.7713816,90.3376856941751
Bangladesh,Dhaka,Dhaka,Keraniganj,Kalatia,1313,23.816822575,90.2543508941751
Bangladesh,Dhaka,Dhaka,Keraniganj,Keraniganj,1310,23.8045147903846,90.3041062249443
Bangladesh,Dhaka,Dhaka,Khilgaon,KhilgaonTSO,1219,23.8313931505435,90.3202417021914
Bangladesh,Dhaka,Dhaka,Khilkhet,KhilkhetTSO,1229,23.8477701297468,90.3559736473566
Bangladesh,Dhaka,Dhaka,Lalbag,Posta TSO,1211,23.7851229419608,90.3303881863593
Bangladesh,Dhaka,Dhaka,Mirpur,Mirpur TSO,1216,23.84244023,90.3223663744744
Bangladesh,Dhaka,Dhaka,Mohammadpur,Mohammadpur Housing,1207,23.8346824860686,90.2890852369201
Bangladesh,Dhaka,Dhaka,Mohammadpur,Sangsad BhabanTSO,1225,23.7320403,90.4887974
Bangladesh,Dhaka,Dhaka,Motijheel,BangabhabanTSO,1222,23.7320403,90.4887974
Bangladesh,Dhaka,Dhaka,Motijheel,DilkushaTSO,1223,23.7320403,90.4887974
Bangladesh,Dhaka,Dhaka,Nawabganj,Agla,1323,23.773716475,90.2105796941751
Bangladesh,Dhaka,Dhaka,Nawabganj,Churain,1325,23.6151736,90.2178544
Bangladesh,Dhaka,Dhaka,Nawabganj,Daudpur,1322,25.3966292,89.1150311
Bangladesh,Dhaka,Dhaka,Nawabganj,Hasnabad,1321,23.7320403,90.4887974
Bangladesh,Dhaka,Dhaka,Nawabganj,Khalpar,1324,23.7320403,90.4887974
Bangladesh,Dhaka,Dhaka,Nawabganj,Nawabganj,1320,22.3798219,90.885109174169
Bangladesh,Dhaka,Dhaka,New market,New Market TSO,1205,23.7818902712554,90.340026450814
Bangladesh,Dhaka,Dhaka,Palton,Dhaka GPO,1000,23.77724795,90.3533941935484
Bangladesh,Dhaka,Dhaka,Ramna,Shantinagr TSO,1217,23.90501325,90.2151312883502
Bangladesh,Dhaka,Dhaka,Sabujbag,Basabo TSO,1214,23.8229139333333,90.3246970775084
Bangladesh,Dhaka,Dhaka,Savar,Amin Bazar,1348,23.7320403,90.4887974
Bangladesh,Dhaka,Dhaka,Savar,Dairy Farm,1341,23.90162488125,90.2622043879251
Bangladesh,Dhaka,Dhaka,Savar,EPZ,1349,23.926471415,90.2472061708418
Bangladesh,Dhaka,Dhaka,Savar,Jahangirnagar Univer,1342,23.90501325,90.2151312883502
Bangladesh,Dhaka,Dhaka,Savar,Kashem Cotton Mills,1346,23.7320403,90.4887974
Bangladesh,Dhaka,Dhaka,Savar,Rajphulbaria,1347,23.8353466266667,90.2514590361167
Bangladesh,Dhaka,Dhaka,Savar,Savar,1340,23.8670016868421,90.2660643931402
Bangladesh,Dhaka,Dhaka,Savar,Savar Canttonment,1344,23.7320403,90.4887974
Bangladesh,Dhaka,Dhaka,Savar,Saver P.A.T.C,1343,23.8895375027778,90.2394586886195
Bangladesh,Dhaka,Dhaka,Savar,Shimulia,1345,23.9006920083333,90.2466330108418
Bangladesh,Dhaka,Dhaka,Sutrapur,Dhaka Sadar HO,1100,23.8096594719697,90.3117227540236
Bangladesh,Dhaka,Dhaka,Sutrapur,Gendaria TSO,1204,23.8034310510259,90.3194858090779
Bangladesh,Dhaka,Dhaka,Sutrapur,Wari TSO,1203,23.8121070985294,90.3185858103516
Bangladesh,Dhaka,Dhaka,Tejgaon,Tejgaon TSO,1215,23.90501325,90.2151312883502
Bangladesh,Dhaka,Dhaka,Tejgaon Industrial Area,Dhaka Politechnic,1208,23.834861924,90.3091119231751
Bangladesh,Dhaka,Dhaka,Uttara,Uttara Model TwonTSO,1230,23.8751580537538,90.3400769274981
Bangladesh,Dhaka,Faridpur,Alfadanga,Alfadanga,7870,23.2962222,89.687849
Bangladesh,Dhaka,Faridpur,Bhanga,Bhanga,7830,23.3890222,89.9853912833333
Bangladesh,Dhaka,Faridpur,Boalmari,Boalmari,7860,24.1676254,89.1402682
Bangladesh,Dhaka,Faridpur,Boalmari,Rupatpat,7861,24.1676254,89.1402682
Bangladesh,Dhaka,Faridpur,Charbhadrasan,Charbadrashan,7810,24.1676254,89.1402682
Bangladesh,Dhaka,Faridpur,Faridpur Sadar,Ambikapur,7802,24.1676254,89.1402682
Bangladesh,Dhaka,Faridpur,Faridpur Sadar,Baitulaman Politecni,7803,24.1676254,89.1402682
Bangladesh,Dhaka,Faridpur,Faridpur Sadar,Faridpursadar,7800,23.6864864888889,89.8399327111111
Bangladesh,Dhaka,Faridpur,Faridpur Sadar,Kanaipur,7801,24.1676254,89.1402682
Bangladesh,Dhaka,Faridpur,Madukhali,Kamarkali,7851,24.1676254,89.1402682
Bangladesh,Dhaka,Faridpur,Madukhali,Madukhali,7850,23.4996748,89.6232661
Bangladesh,Dhaka,Faridpur,Nagarkanda,Nagarkanda,7840,24.1676254,89.1402682
Bangladesh,Dhaka,Faridpur,Nagarkanda,Talma,7841,24.1676254,89.1402682
Bangladesh,Dhaka,Faridpur,Sadarpur,Bishwa jaker Manjil,7822,24.1676254,89.1402682
Bangladesh,Dhaka,Faridpur,Sadarpur,Hat Krishapur,7821,24.1676254,89.1402682
Bangladesh,Dhaka,Faridpur,Sadarpur,Sadarpur,7820,24.1676254,89.1402682
Bangladesh,Dhaka,Faridpur,Shriangan,Shriangan,7804,24.1676254,89.1402682
Bangladesh,Dhaka,Gazipur,Gazipur Sadar,B.O.F,1703,24.033321,90.4157431
Bangladesh,Dhaka,Gazipur,Gazipur Sadar,B.R.R,1701,23.99170592,90.40776136
Bangladesh,Dhaka,Gazipur,Gazipur Sadar,Chandna,1702,24.0855436333333,90.38185675
Bangladesh,Dhaka,Gazipur,Gazipur Sadar,Gazipur Sadar,1700,23.9976977,90.34383565
Bangladesh,Dhaka,Gazipur,Gazipur Sadar,National University,1704,23.55055791,90.5961695
Bangladesh,Dhaka,Gazipur,Kaliakaar,Kaliakaar,1750,23.55055791,90.5961695
Bangladesh,Dhaka,Gazipur,Kaliakaar,Safipur,1751,24.021390625,90.2937516
Bangladesh,Dhaka,Gazipur,Kaliganj,Kaliganj,1720,24.3582308,90.3748984504363
Bangladesh,Dhaka,Gazipur,Kaliganj,Pubail,1721,23.55055791,90.5961695
Bangladesh,Dhaka,Gazipur,Kaliganj,Santanpara,1722,23.55055791,90.5961695
Bangladesh,Dhaka,Gazipur,Kaliganj,Vaoal Jamalpur,1723,23.55055791,90.5961695
Bangladesh,Dhaka,Gazipur,Kapashia,kapashia,1730,23.55055791,90.5961695
Bangladesh,Dhaka,Gazipur,Monnunagar,Ershad Nagar,1712,23.55055791,90.5961695
Bangladesh,Dhaka,Gazipur,Monnunagar,Monnunagar,1710,23.55055791,90.5961695
Bangladesh,Dhaka,Gazipur,Monnunagar,Nishat Nagar,1711,23.9046096,90.3915299
Bangladesh,Dhaka,Gazipur,Sreepur,Barmi,1743,23.55055791,90.5961695
Bangladesh,Dhaka,Gazipur,Sreepur,Bashamur,1747,23.55055791,90.5961695
Bangladesh,Dhaka,Gazipur,Sreepur,Boubi,1748,23.55055791,90.5961695
Bangladesh,Dhaka,Gazipur,Sreepur,Kawraid,1745,23.55055791,90.5961695
Bangladesh,Dhaka,Gazipur,Sreepur,Satkhamair,1744,23.55055791,90.5961695
Bangladesh,Dhaka,Gazipur,Sreepur,Sreepur,1740,24.2210736333333,90.4219707666667
Bangladesh,Dhaka,Gazipur,Sripur,Rajendrapur,1741,23.55055791,90.5961695
Bangladesh,Dhaka,Gazipur,Sripur,Rajendrapur Canttome,1742,24.073367,90.4976168875
Bangladesh,Dhaka,Gopalganj,Gopalganj Sadar,Barfa,8102,22.87625572,89.79096405
Bangladesh,Dhaka,Gopalganj,Gopalganj Sadar,Chandradighalia,8013,22.87625572,89.79096405
Bangladesh,Dhaka,Gopalganj,Gopalganj Sadar,Gopalganj Sadar,8100,22.97753975,89.81575935
Bangladesh,Dhaka,Gopalganj,Gopalganj Sadar,Ulpur,8101,22.87625572,89.79096405
Bangladesh,Dhaka,Gopalganj,Kashiani,Jonapur,8133,22.87625572,89.79096405
Bangladesh,Dhaka,Gopalganj,Kashiani,Kashiani,8130,23.2126696,89.7071602375
Bangladesh,Dhaka,Gopalganj,Kashiani,Ramdia College,8131,22.87625572,89.79096405
Bangladesh,Dhaka,Gopalganj,Kashiani,Ratoil,8132,22.87625572,89.79096405
Bangladesh,Dhaka,Gopalganj,Kotalipara,Kotalipara,8110,22.87625572,89.79096405
Bangladesh,Dhaka,Gopalganj,Maksudpur,Batkiamari,8141,22.87625572,89.79096405
Bangladesh,Dhaka,Gopalganj,Maksudpur,Khandarpara,8142,22.87625572,89.79096405
Bangladesh,Dhaka,Gopalganj,Maksudpur,Maksudpur,8140,23.2838904444444,89.8349322555556
Bangladesh,Dhaka,Gopalganj,Tungipara,Patgati,8121,22.87625572,89.79096405
Bangladesh,Dhaka,Gopalganj,Tungipara,Tungipara,8120,22.87625572,89.79096405
Bangladesh,Dhaka,Kishoreganj,Bajitpur,Bajitpur,2336,24.2146664,90.9523478
Bangladesh,Dhaka,Kishoreganj,Bajitpur,Laksmipur,2338,24.57842533,90.58776997
Bangladesh,Dhaka,Kishoreganj,Bajitpur,Sararchar,2337,24.2488631,90.8992231
Bangladesh,Dhaka,Kishoreganj,Bhairob,Bhairab,2350,24.0499217233333,90.9841930133333
Bangladesh,Dhaka,Kishoreganj,Hossenpur,Hossenpur,2320,24.4541863782609,90.6396609478261
Bangladesh,Dhaka,Kishoreganj,Itna,Itna,2390,24.57842533,90.58776997
Bangladesh,Dhaka,Kishoreganj,Karimganj,Karimganj,2310,24.57842533,90.58776997
Bangladesh,Dhaka,Kishoreganj,Katiadi,Gochhihata,2331,24.57842533,90.58776997
Bangladesh,Dhaka,Kishoreganj,Katiadi,Katiadi,2330,24.57842533,90.58776997
Bangladesh,Dhaka,Kishoreganj,Kishoreganj Sadar,Kishoreganj Sadar,2300,24.4467269526316,90.7801412263158
Bangladesh,Dhaka,Kishoreganj,Kishoreganj Sadar,Kishoreganj S.Mills,2301,24.57842533,90.58776997
Bangladesh,Dhaka,Kishoreganj,Kishoreganj Sadar,Maizhati,2302,24.57842533,90.58776997
Bangladesh,Dhaka,Kishoreganj,Kishoreganj Sadar,Nilganj,2303,24.57842533,90.58776997
Bangladesh,Dhaka,Kishoreganj,Kuliarchar,Chhoysuti,2341,24.57842533,90.58776997
Bangladesh,Dhaka,Kishoreganj,Kuliarchar,Kuliarchar,2340,24.57842533,90.58776997
Bangladesh,Dhaka,Kishoreganj,Mithamoin,Abdullahpur,2371,24.57842533,90.58776997
Bangladesh,Dhaka,Kishoreganj,Mithamoin,MIthamoin,2370,24.57842533,90.58776997
Bangladesh,Dhaka,Kishoreganj,Nikli,Nikli,2360,24.57842533,90.58776997
Bangladesh,Dhaka,Kishoreganj,Ostagram,Ostagram,2380,24.57842533,90.58776997
Bangladesh,Dhaka,Kishoreganj,Pakundia,Pakundia,2326,24.57842533,90.58776997
Bangladesh,Dhaka,Kishoreganj,Tarial,Tarial,2316,24.54923,90.8912914
Bangladesh,Dhaka,Madaripur,Barhamganj,Bahadurpur,7932,23.168065275,90.204142925
Bangladesh,Dhaka,Madaripur,Barhamganj,Barhamganj,7930,23.36833116,90.16561124
Bangladesh,Dhaka,Madaripur,Barhamganj,Nilaksmibandar,7931,23.3688409444444,90.1031753777778
Bangladesh,Dhaka,Madaripur,Barhamganj,Umedpur,7933,23.168065275,90.204142925
Bangladesh,Dhaka,Madaripur,kalkini,Kalkini,7920,23.168065275,90.204142925
Bangladesh,Dhaka,Madaripur,kalkini,Sahabrampur,7921,23.168065275,90.204142925
Bangladesh,Dhaka,Madaripur,Madaripur Sadar,Charmugria,7901,23.1975898,90.1243026
Bangladesh,Dhaka,Madaripur,Madaripur Sadar,Habiganj,7903,23.168065275,90.204142925
Bangladesh,Dhaka,Madaripur,Madaripur Sadar,Kulpaddi,7902,23.1767540333333,90.1574161
Bangladesh,Dhaka,Madaripur,Madaripur Sadar,Madaripur Sadar,7900,23.1691321222222,90.2021554888889
Bangladesh,Dhaka,Madaripur,Madaripur Sadar,Mustafapur,7904,23.168065275,90.204142925
Bangladesh,Dhaka,Madaripur,Rajoir,Khalia,7911,23.03561395,90.23425575
Bangladesh,Dhaka,Madaripur,Rajoir,Rajoir,7910,23.168065275,90.204142925
Bangladesh,Dhaka,Manikganj,Doulatpur,Doulatpur,1860,23.9650471,89.7355102
Bangladesh,Dhaka,Manikganj,Gheor,Gheor,1840,23.86846754,89.9883645
Bangladesh,Dhaka,Manikganj,Lechhraganj,Jhitka,1831,23.7689746666667,89.9037184
Bangladesh,Dhaka,Manikganj,Lechhraganj,Lechhraganj,1830,23.86846754,89.9883645
Bangladesh,Dhaka,Manikganj,Manikganj Sadar,Barangail,1804,23.86846754,89.9883645
Bangladesh,Dhaka,Manikganj,Manikganj Sadar,Gorpara,1802,23.86846754,89.9883645
Bangladesh,Dhaka,Manikganj,Manikganj Sadar,Mahadebpur,1803,23.86846754,89.9883645
Bangladesh,Dhaka,Manikganj,Manikganj Sadar,Manikganj Bazar,1801,23.86846754,89.9883645
Bangladesh,Dhaka,Manikganj,Manikganj Sadar,Manikganj Sadar,1800,23.8523795787234,89.9962117255319
Bangladesh,Dhaka,Manikganj,Saturia,Baliati,1811,23.86846754,89.9883645
Bangladesh,Dhaka,Manikganj,Saturia,Saturia,1810,23.86846754,89.9883645
Bangladesh,Dhaka,Manikganj,Shibloya,Aricha,1851,23.86846754,89.9883645
Bangladesh,Dhaka,Manikganj,Shibloya,Shibaloy,1850,23.86846754,89.9883645
Bangladesh,Dhaka,Manikganj,Shibloya,Tewta,1852,23.86846754,89.9883645
Bangladesh,Dhaka,Manikganj,Shibloya,Uthli,1853,23.86846754,89.9883645
Bangladesh,Dhaka,Manikganj,Singari,Baira,1821,23.86846754,89.9883645
Bangladesh,Dhaka,Manikganj,Singari,joymantop,1822,23.7956027,90.1723481
Bangladesh,Dhaka,Manikganj,Singari,Singair,1820,23.8163692,90.1152457
Bangladesh,Dhaka,Munshiganj,Gajaria,Gajaria,1510,23.5506613888889,90.6504264555556
Bangladesh,Dhaka,Munshiganj,Gajaria,Hossendi,1511,23.28857413,90.19367105
Bangladesh,Dhaka,Munshiganj,Gajaria,Rasulpur,1512,23.28857413,90.19367105
Bangladesh,Dhaka,Munshiganj,Lohajong,Gouragonj,1334,23.5606917416667,90.5311117747736
Bangladesh,Dhaka,Munshiganj,Lohajong,Gouragonj,1534,23.28857413,90.19367105
Bangladesh,Dhaka,Munshiganj,Lohajong,Haldia SO,1532,23.28857413,90.19367105
Bangladesh,Dhaka,Munshiganj,Lohajong,Haridia,1333,22.7906046,89.26592125
Bangladesh,Dhaka,Munshiganj,Lohajong,Haridia DESO,1533,23.28857413,90.19367105
Bangladesh,Dhaka,Munshiganj,Lohajong,Korhati,1531,23.28857413,90.19367105
Bangladesh,Dhaka,Munshiganj,Lohajong,Lohajang,1530,23.28857413,90.19367105
Bangladesh,Dhaka,Munshiganj,Lohajong,Madini Mandal,1335,23.28857413,90.19367105
Bangladesh,Dhaka,Munshiganj,Lohajong,Medini Mandal EDSO,1535,23.4940594,90.2673128
Bangladesh,Dhaka,Munshiganj,Munshiganj Sadar,Kathakhali,1503,23.28857413,90.19367105
Bangladesh,Dhaka,Munshiganj,Munshiganj Sadar,Mirkadim,1502,23.55972475,90.4859777833334
Bangladesh,Dhaka,Munshiganj,Munshiganj Sadar,Munshiganj Sadar,1500,23.4652557714286,90.5262279
Bangladesh,Dhaka,Munshiganj,Munshiganj Sadar,Rikabibazar,1501,23.28857413,90.19367105
Bangladesh,Dhaka,Munshiganj,Sirajdikhan,Ichapur,1542,23.5501650714286,90.3933589857143
Bangladesh,Dhaka,Munshiganj,Sirajdikhan,Kola,1541,23.28857413,90.19367105
Bangladesh,Dhaka,Munshiganj,Sirajdikhan,Malkha Nagar,1543,23.28857413,90.19367105
Bangladesh,Dhaka,Munshiganj,Sirajdikhan,Shekher Nagar,1544,23.28857413,90.19367105
Bangladesh,Dhaka,Munshiganj,Sirajdikhan,Sirajdikhan,1540,23.28857413,90.19367105
Bangladesh,Dhaka,Munshiganj,Srinagar,Baghra,1557,23.28857413,90.19367105
Bangladesh,Dhaka,Munshiganj,Srinagar,Barikhal,1551,23.28857413,90.19367105
Bangladesh,Dhaka,Munshiganj,Srinagar,Bhaggyakul,1558,23.28857413,90.19367105
Bangladesh,Dhaka,Munshiganj,Srinagar,Hashara,1553,23.28857413,90.19367105
Bangladesh,Dhaka,Munshiganj,Srinagar,Kolapara,1554,23.28857413,90.19367105
Bangladesh,Dhaka,Munshiganj,Srinagar,Kumarbhog,1555,23.28857413,90.19367105
Bangladesh,Dhaka,Munshiganj,Srinagar,Mazpara,1552,23.28857413,90.19367105
Bangladesh,Dhaka,Munshiganj,Srinagar,Srinagar,1550,23.51990405,90.2934461
Bangladesh,Dhaka,Munshiganj,Srinagar,Vaggyakul SO,1556,23.28857413,90.19367105
Bangladesh,Dhaka,Munshiganj,Tangibari,Bajrajugini,1523,23.28857413,90.19367105
Bangladesh,Dhaka,Munshiganj,Tangibari,Baligao,1522,23.28857413,90.19367105
Bangladesh,Dhaka,Munshiganj,Tangibari,Betkahat,1521,23.5327859636364,90.4569516545454
Bangladesh,Dhaka,Munshiganj,Tangibari,Dighirpar,1525,23.28857413,90.19367105
Bangladesh,Dhaka,Munshiganj,Tangibari,Hasail,1524,23.28857413,90.19367105
Bangladesh,Dhaka,Munshiganj,Tangibari,Pura,1527,23.28857413,90.19367105
Bangladesh,Dhaka,Munshiganj,Tangibari,Pura EDSO,1526,23.28857413,90.19367105
Bangladesh,Dhaka,Munshiganj,Tangibari,Tangibari,1520,23.5125577465116,90.4716343325581
Bangladesh,Dhaka,Narayanganj,Araihazar,Araihazar,1450,23.63925695,90.48442542
Bangladesh,Dhaka,Narayanganj,Araihazar,Gopaldi,1451,23.63925695,90.48442542
Bangladesh,Dhaka,Narayanganj,Baidder Bazar,Baidder Bazar,1440,23.6200877571429,90.6192909428571
Bangladesh,Dhaka,Narayanganj,Baidder Bazar,Bara Nagar,1441,23.63925695,90.48442542
Bangladesh,Dhaka,Narayanganj,Baidder Bazar,Barodi,1442,23.63925695,90.48442542
Bangladesh,Dhaka,Narayanganj,Bandar,Bandar,1410,23.6170485619048,90.5186143571429
Bangladesh,Dhaka,Narayanganj,Bandar,BIDS,1413,23.63925695,90.48442542
Bangladesh,Dhaka,Narayanganj,Bandar,D.C Mills,1411,23.63925695,90.48442542
Bangladesh,Dhaka,Narayanganj,Bandar,Madanganj,1414,23.63925695,90.48442542
Bangladesh,Dhaka,Narayanganj,Bandar,Nabiganj,1412,23.6170522,90.5206773
Bangladesh,Dhaka,Narayanganj,Fatullah,Fatulla Bazar,1421,23.6674446583333,90.472254275
Bangladesh,Dhaka,Narayanganj,Fatullah,Fatullah,1420,23.6394513,90.4731281693197
Bangladesh,Dhaka,Narayanganj,Narayanganj Sadar,Narayanganj Sadar,1400,23.6252805611111,90.4955203944444
Bangladesh,Dhaka,Narayanganj,Rupganj,Bhulta,1462,23.7841871,90.5705581
Bangladesh,Dhaka,Narayanganj,Rupganj,Kanchan,1461,23.8306171,90.5550807
Bangladesh,Dhaka,Narayanganj,Rupganj,Murapara,1464,23.63925695,90.48442542
Bangladesh,Dhaka,Narayanganj,Rupganj,Nagri,1463,23.63925695,90.48442542
Bangladesh,Dhaka,Narayanganj,Rupganj,Rupganj,1460,23.7653406333333,90.5264673666667
Bangladesh,Dhaka,Narayanganj,Siddirganj,Adamjeenagar,1431,23.67807065,90.51696665
Bangladesh,Dhaka,Narayanganj,Siddirganj,LN Mills,1432,23.65814945,90.51674145
Bangladesh,Dhaka,Narayanganj,Siddirganj,Siddirganj,1430,23.6941881733333,90.5078083466667
Bangladesh,Dhaka,Narshingdi,Belabo,Belabo,1640,24.144979232,90.812687324
Bangladesh,Dhaka,Narshingdi,Monohordi,Hatirdia,1651,24.10748842,90.7671745
Bangladesh,Dhaka,Narshingdi,Monohordi,Katabaria,1652,24.1987009333333,90.76918215
Bangladesh,Dhaka,Narshingdi,Monohordi,Monohordi,1650,24.22610305,90.7343792666667
Bangladesh,Dhaka,Narshingdi,Narshingdi Sadar,Karimpur,1605,23.9131323,90.7002246
Bangladesh,Dhaka,Narshingdi,Narshingdi Sadar,Madhabdi,1604,23.9131323,90.7002246
Bangladesh,Dhaka,Narshingdi,Narshingdi Sadar,Narshingdi College,1602,23.922811425,90.7137915869006
Bangladesh,Dhaka,Narshingdi,Narshingdi Sadar,Narshingdi Sadar,1600,23.9196645,90.7021994333333
Bangladesh,Dhaka,Narshingdi,Narshingdi Sadar,Panchdona,1603,23.9131323,90.7002246
Bangladesh,Dhaka,Narshingdi,Narshingdi Sadar,UMC Jute Mills,1601,23.9131323,90.7002246
Bangladesh,Dhaka,Narshingdi,Palash,Char Sindhur,1612,23.9131323,90.7002246
Bangladesh,Dhaka,Narshingdi,Palash,Ghorashal,1613,23.9214627428571,90.7088235210861
Bangladesh,Dhaka,Narshingdi,Palash,Ghorashal Urea Facto,1611,23.9131323,90.7002246
Bangladesh,Dhaka,Narshingdi,Palash,Palash,1610,23.9214627428571,90.7088235210861
Bangladesh,Dhaka,Narshingdi,Raypura,Bazar Hasnabad,1631,23.9131323,90.7002246
Bangladesh,Dhaka,Narshingdi,Raypura,Radhaganj bazar,1632,23.9131323,90.7002246
Bangladesh,Dhaka,Narshingdi,Raypura,Raypura,1630,23.93092175,90.72116005
Bangladesh,Dhaka,Narshingdi,Shibpur,Shibpur,1620,23.9321385666667,90.7129215809955
Bangladesh,Dhaka,Rajbari,Baliakandi,Baliakandi,7730,23.6422239666667,89.473094
Bangladesh,Dhaka,Rajbari,Baliakandi,Nalia,7731,23.56552693,90.09387279
Bangladesh,Dhaka,Rajbari,Pangsha,Mrigibazar,7723,23.56552693,90.09387279
Bangladesh,Dhaka,Rajbari,Pangsha,Pangsha,7720,23.789428225,89.423632225
Bangladesh,Dhaka,Rajbari,Pangsha,Ramkol,7721,23.56552693,90.09387279
Bangladesh,Dhaka,Rajbari,Pangsha,Ratandia,7722,23.789736,89.5028076
Bangladesh,Dhaka,Rajbari,Rajbari Sadar,Goalanda,7710,23.7200316,89.7589328
Bangladesh,Dhaka,Rajbari,Rajbari Sadar,Khankhanapur,7711,23.6886787,89.7256431
Bangladesh,Dhaka,Rajbari,Rajbari Sadar,Rajbari Sadar,7700,23.7554863333333,89.6440577
Bangladesh,Dhaka,Shariatpur,Bhedorganj,Bhedorganj,8030,23.210380885,90.3795196928751
Bangladesh,Dhaka,Shariatpur,Damudhya,Damudhya,8040,23.210380885,90.3795196928751
Bangladesh,Dhaka,Shariatpur,Gosairhat,Gosairhat,8050,23.210380885,90.3795196928751
Bangladesh,Dhaka,Shariatpur,Jajira,Jajira,8010,23.37171556,90.29590416
Bangladesh,Dhaka,Shariatpur,Naria,Bhozeshwar,8021,23.210380885,90.3795196928751
Bangladesh,Dhaka,Shariatpur,Naria,Gharisar,8022,23.210380885,90.3795196928751
Bangladesh,Dhaka,Shariatpur,Naria,Kartikpur,8024,23.210380885,90.3795196928751
Bangladesh,Dhaka,Shariatpur,Naria,Naria,8020,23.30230405,90.36097565
Bangladesh,Dhaka,Shariatpur,Naria,Upshi,8023,23.210380885,90.3795196928751
Bangladesh,Dhaka,Shariatpur,Shariatpur Sadar,Angaria,8001,23.210380885,90.3795196928751
Bangladesh,Dhaka,Shariatpur,Shariatpur Sadar,Chikandi,8002,23.210380885,90.3795196928751
Bangladesh,Dhaka,Shariatpur,Shariatpur Sadar,Shariatpur Sadar,8000,23.2159398333333,90.3478598333333
Bangladesh,Dhaka,Tangail,Basail,Basail,1920,24.2290922846154,90.0533928923077
Bangladesh,Dhaka,Tangail,Bhuapur,Bhuapur,1960,24.201127465,90.0167638662424
Bangladesh,Dhaka,Tangail,Delduar,Delduar,1910,24.201127465,90.0167638662424
Bangladesh,Dhaka,Tangail,Delduar,Elasin,1913,24.201127465,90.0167638662424
Bangladesh,Dhaka,Tangail,Delduar,Hinga Nagar,1914,24.201127465,90.0167638662424
Bangladesh,Dhaka,Tangail,Delduar,Jangalia,1911,22.7235941,90.6385213
Bangladesh,Dhaka,Tangail,Delduar,Lowhati,1915,24.201127465,90.0167638662424
Bangladesh,Dhaka,Tangail,Delduar,Patharail,1912,24.201127465,90.0167638662424
Bangladesh,Dhaka,Tangail,Ghatail,Dhalapara,1983,24.201127465,90.0167638662424
Bangladesh,Dhaka,Tangail,Ghatail,D. Pakutia,1982,24.201127465,90.0167638662424
Bangladesh,Dhaka,Tangail,Ghatail,Ghatial,1980,24.201127465,90.0167638662424
Bangladesh,Dhaka,Tangail,Ghatail,Lohani,1984,23.52742155,90.45593165
Bangladesh,Dhaka,Tangail,Ghatail,Zahidganj,1981,24.201127465,90.0167638662424
Bangladesh,Dhaka,Tangail,Gopalpur,Gopalpur,1990,24.564634,89.917136625
Bangladesh,Dhaka,Tangail,Gopalpur,Hemnagar,1992,25.42538815,89.375762470151
Bangladesh,Dhaka,Tangail,Gopalpur,Jhowail,1991,22.2823715,91.7809482
Bangladesh,Dhaka,Tangail,Kalihati,Ballabazar,1973,24.201127465,90.0167638662424
Bangladesh,Dhaka,Tangail,Kalihati,Elinga,1974,25.4160306,89.7776476
Bangladesh,Dhaka,Tangail,Kalihati,Kalihati,1970,22.7236238,90.6405008
Bangladesh,Dhaka,Tangail,Kalihati,Nagarbari,1977,24.201127465,90.0167638662424
Bangladesh,Dhaka,Tangail,Kalihati,Nagarbari SO,1976,24.201127465,90.0167638662424
Bangladesh,Dhaka,Tangail,Kalihati,Nagbari,1972,24.201127465,90.0167638662424
Bangladesh,Dhaka,Tangail,Kalihati,Palisha,1975,25.4196669,89.7683832
Bangladesh,Dhaka,Tangail,Kalihati,Rajafair,1971,23.85845205,90.1012283930158
Bangladesh,Dhaka,Tangail,Kashkaolia,Kashkawlia,1930,24.201127465,90.0167638662424
Bangladesh,Dhaka,Tangail,Madhupur,Dhobari,1997,24.6794477,89.9786399
Bangladesh,Dhaka,Tangail,Madhupur,Madhupur,1996,24.62367005,90.0438496827586
Bangladesh,Dhaka,Tangail,Mirzapur,Gorai,1941,24.201127465,90.0167638662424
Bangladesh,Dhaka,Tangail,Mirzapur,Jarmuki,1944,24.201127465,90.0167638662424
Bangladesh,Dhaka,Tangail,Mirzapur,M.C. College,1942,24.201127465,90.0167638662424
Bangladesh,Dhaka,Tangail,Mirzapur,Mirzapur,1940,24.201127465,90.0167638662424
Bangladesh,Dhaka,Tangail,Mirzapur,Mohera,1945,24.129742,90.0436449
Bangladesh,Dhaka,Tangail,Mirzapur,Warri paikpara,1943,24.201127465,90.0167638662424
Bangladesh,Dhaka,Tangail,Nagarpur,Dhuburia,1937,24.201127465,90.0167638662424
Bangladesh,Dhaka,Tangail,Nagarpur,Nagarpur,1936,24.0592347,89.8214601
Bangladesh,Dhaka,Tangail,Nagarpur,Salimabad,1938,24.201127465,90.0167638662424
Bangladesh,Dhaka,Tangail,Sakhipur,Kochua,1951,24.3677901,90.198773725
Bangladesh,Dhaka,Tangail,Sakhipur,Sakhipur,1950,24.2235084875,90.1776182625
Bangladesh,Dhaka,Tangail,Tangail Sadar,Kagmari,1901,24.201127465,90.0167638662424
Bangladesh,Dhaka,Tangail,Tangail Sadar,Korotia,1903,24.2214192444444,89.9776848333334
Bangladesh,Dhaka,Tangail,Tangail Sadar,Purabari,1904,24.201127465,90.0167638662424
Bangladesh,Dhaka,Tangail,Tangail Sadar,Santosh,1902,24.2394041,89.8892161
Bangladesh,Dhaka,Tangail,Tangail Sadar,Tangail Sadar,1900,24.2706745104167,89.9178272729167
Bangladesh,Khulna,Bagerhat,Bagerhat Sadar,Bagerhat Sadar,9300,22.6610090166667,89.7650664333333
Bangladesh,Khulna,Bagerhat,Bagerhat Sadar,P.C College,9301,22.67653843,89.78262567
Bangladesh,Khulna,Bagerhat,Bagerhat Sadar,Rangdia,9302,22.67653843,89.78262567
Bangladesh,Khulna,Bagerhat,Chalna Ankorage,Chalna Ankorage,9350,22.473239,89.6050839
Bangladesh,Khulna,Bagerhat,Chalna Ankorage,Mongla Port,9351,22.67653843,89.78262567
Bangladesh,Khulna,Bagerhat,Chitalmari,Barabaria,9361,22.67653843,89.78262567
Bangladesh,Khulna,Bagerhat,Chitalmari,Chitalmari,9360,22.78730438,89.87878926
Bangladesh,Khulna,Bagerhat,Fakirhat,Bhanganpar Bazar,9372,22.67653843,89.78262567
Bangladesh,Khulna,Bagerhat,Fakirhat,Fakirhat,9370,22.746826,89.6720377
Bangladesh,Khulna,Bagerhat,Fakirhat,Mansa,9371,22.79185455,89.67372385
Bangladesh,Khulna,Bagerhat,Kachua UPO,Kachua,9310,22.67653843,89.78262567
Bangladesh,Khulna,Bagerhat,Kachua UPO,Sonarkola,9311,22.67653843,89.78262567
Bangladesh,Khulna,Bagerhat,Mollahat,Charkulia,9383,22.67653843,89.78262567
Bangladesh,Khulna,Bagerhat,Mollahat,Dariala,9382,22.67653843,89.78262567
Bangladesh,Khulna,Bagerhat,Mollahat,Kahalpur,9381,22.67653843,89.78262567
Bangladesh,Khulna,Bagerhat,Mollahat,Mollahat,9380,22.67653843,89.78262567
Bangladesh,Khulna,Bagerhat,Mollahat,Nagarkandi,9384,22.67653843,89.78262567
Bangladesh,Khulna,Bagerhat,Mollahat,Pak Gangni,9385,22.67653843,89.78262567
Bangladesh,Khulna,Bagerhat,Morelganj,Morelganj,9320,22.67653843,89.78262567
Bangladesh,Khulna,Bagerhat,Morelganj,Sannasi Bazar,9321,22.67653843,89.78262567
Bangladesh,Khulna,Bagerhat,Morelganj,Telisatee,9322,22.67653843,89.78262567
Bangladesh,Khulna,Bagerhat,Rampal,Foylahat,9341,22.67653843,89.78262567
Bangladesh,Khulna,Bagerhat,Rampal,Gourambha,9343,22.67653843,89.78262567
Bangladesh,Khulna,Bagerhat,Rampal,Rampal,9340,22.67653843,89.78262567
Bangladesh,Khulna,Bagerhat,Rampal,Sonatunia,9342,22.67653843,89.78262567
Bangladesh,Khulna,Bagerhat,Rayenda,Rayenda,9330,22.3146405833333,89.8498243
Bangladesh,Khulna,Chuadanga,Alamdanga,Alamdanga,7210,23.7588064090909,88.9428634181818
Bangladesh,Khulna,Chuadanga,Alamdanga,Hardi,7211,23.72075649,88.95915383
Bangladesh,Khulna,Chuadanga,Chuadanga Sadar,Chuadanga Sadar,7200,23.6347404,88.8557416
Bangladesh,Khulna,Chuadanga,Chuadanga Sadar,Munshiganj,7201,23.72075649,88.95915383
Bangladesh,Khulna,Chuadanga,Damurhuda,Andulbaria,7222,23.72075649,88.95915383
Bangladesh,Khulna,Chuadanga,Damurhuda,Damurhuda,7220,23.72075649,88.95915383
Bangladesh,Khulna,Chuadanga,Damurhuda,Darshana,7221,23.72075649,88.95915383
Bangladesh,Khulna,Chuadanga,Doulatganj,Doulatganj,7230,23.72075649,88.95915383
Bangladesh,Khulna,Jessore,Bagharpara,Bagharpara,7470,23.17078462,89.2260201296943
Bangladesh,Khulna,Jessore,Bagharpara,Gouranagar,7471,23.17078462,89.2260201296943
Bangladesh,Khulna,Jessore,Chaugachha,Chougachha,7410,23.2614939,89.0238421
Bangladesh,Khulna,Jessore,Jessore Sadar,Basundia,7406,23.17078462,89.2260201296943
Bangladesh,Khulna,Jessore,Jessore Sadar,Chanchra,7402,23.15014955,89.19961055
Bangladesh,Khulna,Jessore,Jessore Sadar,Churamankathi,7407,23.17078462,89.2260201296943
Bangladesh,Khulna,Jessore,Jessore Sadar,Jessore Airbach,7404,23.17078462,89.2260201296943
Bangladesh,Khulna,Jessore,Jessore Sadar,Jessore canttonment,7403,23.17078462,89.2260201296943
Bangladesh,Khulna,Jessore,Jessore Sadar,Jessore Sadar,7400,23.1616030253208,89.2096841141278
Bangladesh,Khulna,Jessore,Jessore Sadar,Jessore Upa-Shahar,7401,23.17078462,89.2260201296943
Bangladesh,Khulna,Jessore,Jessore Sadar,Rupdia,7405,23.17078462,89.2260201296943
Bangladesh,Khulna,Jessore,Jhikargachha,Jhikargachha,7420,23.17078462,89.2260201296943
Bangladesh,Khulna,Jessore,Keshabpur,Keshobpur,7450,22.9068677,89.2172702
Bangladesh,Khulna,Jessore,Monirampur,Monirampur,7440,23.17078462,89.2260201296943
Bangladesh,Khulna,Jessore,Noapara,Bhugilhat,7462,23.17078462,89.2260201296943
Bangladesh,Khulna,Jessore,Noapara,Noapara,7460,23.17078462,89.2260201296943
Bangladesh,Khulna,Jessore,Noapara,Rajghat,7461,23.17078462,89.2260201296943
Bangladesh,Khulna,Jessore,Sarsa,Bag Achra,7433,23.17078462,89.2260201296943
Bangladesh,Khulna,Jessore,Sarsa,Benapole,7431,23.03777355,88.892015925
Bangladesh,Khulna,Jessore,Sarsa,Jadabpur,7432,23.0576687,88.991862
Bangladesh,Khulna,Jessore,Sarsa,Sarsa,7430,23.17078462,89.2260201296943
Bangladesh,Khulna,Jhenaidah,Harinakundu,Harinakundu,7310,23.631954875,89.1398261617971
Bangladesh,Khulna,Jhenaidah,Jinaidaha Sadar,Jinaidaha Cadet College,7301,23.631954875,89.1398261617971
Bangladesh,Khulna,Jhenaidah,Jinaidaha Sadar,Jinaidaha Sadar,7300,23.54140466,89.1679313
Bangladesh,Khulna,Jhenaidah,Kotchandpur,Kotchandpur,7330,23.4078157,89.0054369
Bangladesh,Khulna,Jhenaidah,Maheshpur,Maheshpur,7340,23.3897224,88.9471049
Bangladesh,Khulna,Jhenaidah,Naldanga,Hatbar Bazar,7351,23.631954875,89.1398261617971
Bangladesh,Khulna,Jhenaidah,Naldanga,Naldanga,7350,23.631954875,89.1398261617971
Bangladesh,Khulna,Jhenaidah,Shailakupa,Kumiradaha,7321,23.631954875,89.1398261617971
Bangladesh,Khulna,Jhenaidah,Shailakupa,Shailakupa,7320,23.631954875,89.1398261617971
Bangladesh,Khulna,Khulna,,Indranarayanpur,8350,22.80344525,89.5559585932339
Bangladesh,Khulna,Khulna,,Kamarhat,8720,22.80344525,89.5559585932339
Bangladesh,Khulna,Khulna,Alaipur,Alaipur,9240,22.80344525,89.5559585932339
Bangladesh,Khulna,Khulna,Alaipur,Belphulia,9242,22.80344525,89.5559585932339
Bangladesh,Khulna,Khulna,Alaipur,Rupsha,9241,22.80344525,89.5559585932339
Bangladesh,Khulna,Khulna,Batiaghat,Batiaghat,9260,22.78315826,89.54411007
Bangladesh,Khulna,Khulna,Batiaghat,Surkalee,9261,22.80344525,89.5559585932339
Bangladesh,Khulna,Khulna,Chalna Bazar,Bajua,9272,22.80344525,89.5559585932339
Bangladesh,Khulna,Khulna,Chalna Bazar,Chalna Bazar,9270,22.539342,89.4449463
Bangladesh,Khulna,Khulna,Chalna Bazar,Dakup,9271,22.80344525,89.5559585932339
Bangladesh,Khulna,Khulna,Chalna Bazar,Nalian,9273,22.80344525,89.5559585932339
Bangladesh,Khulna,Khulna,Digalia,Chandni Mahal,9221,22.80344525,89.5559585932339
Bangladesh,Khulna,Khulna,Digalia,Digalia,9220,22.80344525,89.5559585932339
Bangladesh,Khulna,Khulna,Digalia,Gazirhat,9224,22.80344525,89.5559585932339
Bangladesh,Khulna,Khulna,Digalia,Ghoshghati,9223,22.80344525,89.5559585932339
Bangladesh,Khulna,Khulna,Digalia,Senhati,9222,22.8761353,89.5418418
Bangladesh,Khulna,Khulna,Khulna Sadar,Atra Shilpa Area,9207,22.80344525,89.5559585932339
Bangladesh,Khulna,Khulna,Khulna Sadar,BIT Khulna,9203,22.89759084,89.5040745733333
Bangladesh,Khulna,Khulna,Khulna Sadar,Doulatpur,9202,22.8706953333333,89.5233565333333
Bangladesh,Khulna,Khulna,Khulna Sadar,Jahanabad Canttonmen,9205,22.80344525,89.5559585932339
Bangladesh,Khulna,Khulna,Khulna Sadar,Khula Sadar,9100,22.7945933045642,89.5704445191764
Bangladesh,Khulna,Khulna,Khulna Sadar,Khulna G.P.O,9000,22.842017405,89.5324397225
Bangladesh,Khulna,Khulna,Khulna Sadar,Khulna Shipyard,9201,22.7804088,89.5532714
Bangladesh,Khulna,Khulna,Khulna Sadar,Khulna University,9208,22.8034594538461,89.5340913230769
Bangladesh,Khulna,Khulna,Khulna Sadar,Siramani,9204,22.80344525,89.5559585932339
Bangladesh,Khulna,Khulna,Khulna Sadar,Sonali Jute Mills,9206,22.9032432,89.5119424333333
Bangladesh,Khulna,Khulna,Madinabad,Amadee,9291,22.80344525,89.5559585932339
Bangladesh,Khulna,Khulna,Madinabad,Madinabad,9290,22.80344525,89.5559585932339
Bangladesh,Khulna,Khulna,Paikgachha,Chandkhali,9284,22.80344525,89.5559585932339
Bangladesh,Khulna,Khulna,Paikgachha,Garaikhali,9285,22.6088180285714,89.4042658785714
Bangladesh,Khulna,Khulna,Paikgachha,Godaipur,9281,22.80344525,89.5559585932339
Bangladesh,Khulna,Khulna,Paikgachha,Kapilmoni,9282,22.80344525,89.5559585932339
Bangladesh,Khulna,Khulna,Paikgachha,Katipara,9283,22.80344525,89.5559585932339
Bangladesh,Khulna,Khulna,Paikgachha,Paikgachha,9280,22.5990709428571,89.3341530285714
Bangladesh,Khulna,Khulna,Phultala,Phultala,9210,22.9736153,89.475374
Bangladesh,Khulna,Khulna,Sajiara,Chuknagar,9252,22.80344525,89.5559585932339
Bangladesh,Khulna,Khulna,Sajiara,Ghonabanda,9251,22.80344525,89.5559585932339
Bangladesh,Khulna,Khulna,Sajiara,Sajiara,9250,22.80344525,89.5559585932339
Bangladesh,Khulna,Khulna,Sajiara,Shahapur,9253,22.80344525,89.5559585932339
Bangladesh,Khulna,Khulna,Terakhada,Pak Barasat,9231,22.80344525,89.5559585932339
Bangladesh,Khulna,Khulna,Terakhada,Terakhada,9230,22.9536019170213,89.6579452829787
Bangladesh,Khulna,Kustia,Bheramara,Allardarga,7042,22.8338085,89.5794517
Bangladesh,Khulna,Kustia,Bheramara,Bheramara,7040,22.95134635,89.57496135
Bangladesh,Khulna,Kustia,Bheramara,Ganges Bheramara,7041,22.8136786,89.5910159
Bangladesh,Khulna,Kustia,Janipur,Janipur,7020,23.7963015,89.3075026
Bangladesh,Khulna,Kustia,Janipur,Khoksa,7021,23.8239853714286,89.0166653
Bangladesh,Khulna,Kustia,Kumarkhali,Kumarkhali,7010,23.8800103,89.091424
Bangladesh,Khulna,Kustia,Kumarkhali,Panti,7011,23.8239853714286,89.0166653
Bangladesh,Khulna,Kustia,Kustia Sadar,Islami University,7003,23.8239853714286,89.0166653
Bangladesh,Khulna,Kustia,Kustia Sadar,Jagati,7002,23.83536055,89.02691205
Bangladesh,Khulna,Kustia,Kustia Sadar,Kushtia Mohini,7001,23.88958347,89.1014783308073
Bangladesh,Khulna,Kustia,Kustia Sadar,Kustia Sadar,7000,23.1853698,89.3992840666667
Bangladesh,Khulna,Kustia,Mirpur,Amla Sadarpur,7032,23.8239853714286,89.0166653
Bangladesh,Khulna,Kustia,Mirpur,Mirpur,7030,23.8239853714286,89.0166653
Bangladesh,Khulna,Kustia,Mirpur,Poradaha,7031,23.8239853714286,89.0166653
Bangladesh,Khulna,Kustia,Rafayetpur,Khasmathurapur,7052,23.8239853714286,89.0166653
Bangladesh,Khulna,Kustia,Rafayetpur,Rafayetpur,7050,23.8239853714286,89.0166653
Bangladesh,Khulna,Kustia,Rafayetpur,Taragunia,7051,23.8239853714286,89.0166653
Bangladesh,Khulna,Magura,Arpara,Arpara,7620,23.58483939,89.43046928
Bangladesh,Khulna,Magura,Magura Sadar,Magura Sadar,7600,23.4917339,89.4150195
Bangladesh,Khulna,Magura,Mohammadpur,Binodpur,7631,23.58483939,89.43046928
Bangladesh,Khulna,Magura,Mohammadpur,Mohammadpur,7630,23.58483939,89.43046928
Bangladesh,Khulna,Magura,Mohammadpur,Nahata,7632,23.58483939,89.43046928
Bangladesh,Khulna,Magura,Shripur,Langalbadh,7611,23.58483939,89.43046928
Bangladesh,Khulna,Magura,Shripur,Nachol,7612,23.58483939,89.43046928
Bangladesh,Khulna,Magura,Shripur,Shripur,7610,23.58483939,89.43046928
Bangladesh,Khulna,Meherpur,Gangni,Gangni,7110,23.8950211,88.8065095
Bangladesh,Khulna,Meherpur,Meherpur Sadar,Amjhupi,7101,23.75720331,88.63627762
Bangladesh,Khulna,Meherpur,Meherpur Sadar,Amjhupi,7152,23.75720331,88.63627762
Bangladesh,Khulna,Meherpur,Meherpur Sadar,Meherpur Sadar,7100,23.780688937931,88.6396622
Bangladesh,Khulna,Meherpur,Meherpur Sadar,Mujib Nagar Complex,7102,23.75720331,88.63627762
Bangladesh,Khulna,Narail,Kalia,Kalia,7520,23.0463692207841,89.6538538040251
Bangladesh,Khulna,Narail,Laxmipasha,Baradia,7514,23.37179465,89.56570246
Bangladesh,Khulna,Narail,Laxmipasha,Itna,7512,23.37179465,89.56570246
Bangladesh,Khulna,Narail,Laxmipasha,Laxmipasha,7510,23.37179465,89.56570246
Bangladesh,Khulna,Narail,Laxmipasha,Lohagora,7511,23.37179465,89.56570246
Bangladesh,Khulna,Narail,Laxmipasha,Naldi,7513,23.37179465,89.56570246
Bangladesh,Khulna,Narail,Mohajan,Mohajan,7521,23.37179465,89.56570246
Bangladesh,Khulna,Narail,Narail Sadar,Narail Sadar,7500,23.37179465,89.56570246
Bangladesh,Khulna,Narail,Narail Sadar,Ratanganj,7501,23.37179465,89.56570246
Bangladesh,Khulna,Satkhira,Ashashuni,Ashashuni,9460,22.70901444,89.03787656
Bangladesh,Khulna,Satkhira,Ashashuni,Baradal,9461,22.70901444,89.03787656
Bangladesh,Khulna,Satkhira,Debbhata,Debbhata,9430,22.70901444,89.03787656
Bangladesh,Khulna,Satkhira,Debbhata,Gurugram,9431,22.70901444,89.03787656
Bangladesh,Khulna,Satkhira,kalaroa,Chandanpur,9415,22.70901444,89.03787656
Bangladesh,Khulna,Satkhira,kalaroa,Hamidpur,9413,22.70901444,89.03787656
Bangladesh,Khulna,Satkhira,kalaroa,Jhaudanga,9412,22.70901444,89.03787656
Bangladesh,Khulna,Satkhira,kalaroa,kalaroa,9410,22.70901444,89.03787656
Bangladesh,Khulna,Satkhira,kalaroa,Khordo,9414,22.70901444,89.03787656
Bangladesh,Khulna,Satkhira,kalaroa,Murarikati,9411,22.70901444,89.03787656
Bangladesh,Khulna,Satkhira,Kaliganj UPO,Kaliganj UPO,9440,22.70901444,89.03787656
Bangladesh,Khulna,Satkhira,Kaliganj UPO,Nalta Mubaroknagar,9441,22.515139825,89.01518415
Bangladesh,Khulna,Satkhira,Kaliganj UPO,Ratanpur,9442,22.70901444,89.03787656
Bangladesh,Khulna,Satkhira,Nakipur,Buri Goalini,9453,22.70901444,89.03787656
Bangladesh,Khulna,Satkhira,Nakipur,Gabura,9454,22.70901444,89.03787656
Bangladesh,Khulna,Satkhira,Nakipur,Habinagar,9455,22.70901444,89.03787656
Bangladesh,Khulna,Satkhira,Nakipur,Nakipur,9450,22.70901444,89.03787656
Bangladesh,Khulna,Satkhira,Nakipur,Naobeki,9452,22.70901444,89.03787656
Bangladesh,Khulna,Satkhira,Nakipur,Noornagar,9451,22.70901444,89.03787656
Bangladesh,Khulna,Satkhira,Satkhira Sadar,Budhhat,9403,22.6157705,89.149873
Bangladesh,Khulna,Satkhira,Satkhira Sadar,Gunakar kati,9402,22.70901444,89.03787656
Bangladesh,Khulna,Satkhira,Satkhira Sadar,Satkhira Islamia Acc,9401,22.70901444,89.03787656
Bangladesh,Khulna,Satkhira,Satkhira Sadar,Satkhira Sadar,9400,22.69187158,89.07573432
Bangladesh,Khulna,Satkhira,Taala,Patkelghata,9421,22.70901444,89.03787656
Bangladesh,Khulna,Satkhira,Taala,Taala,9420,22.70901444,89.03787656
Bangladesh,Mymensingh,Jamalpur,Dewangonj,Dewangonj,2030,25.3526834,89.7904317
Bangladesh,Mymensingh,Jamalpur,Dewangonj,Dewangonj S. Mills,2031,24.69021791,90.03056974
Bangladesh,Mymensingh,Jamalpur,Islampur,Durmoot,2021,24.69021791,90.03056974
Bangladesh,Mymensingh,Jamalpur,Islampur,Gilabari,2022,24.69021791,90.03056974
Bangladesh,Mymensingh,Jamalpur,Islampur,Islampur,2020,24.69021791,90.03056974
Bangladesh,Mymensingh,Jamalpur,Jamalpur,Jamalpur,2000,24.92165654375,89.9439529330913
Bangladesh,Mymensingh,Jamalpur,Jamalpur,Nandina,2001,24.8716033,90.0344214
Bangladesh,Mymensingh,Jamalpur,Jamalpur,Narundi,2002,24.69021791,90.03056974
Bangladesh,Mymensingh,Jamalpur,Malandah,Jamalpur,2011,24.69021791,90.03056974
Bangladesh,Mymensingh,Jamalpur,Malandah,Mahmoodpur,2013,24.69021791,90.03056974
Bangladesh,Mymensingh,Jamalpur,Malandah,Malancha,2012,24.8903963777778,89.8709788555556
Bangladesh,Mymensingh,Jamalpur,Malandah,Malandah,2010,24.69021791,90.03056974
Bangladesh,Mymensingh,Jamalpur,Mathargonj,Balijhuri,2041,24.69021791,90.03056974
Bangladesh,Mymensingh,Jamalpur,Mathargonj,Mathargonj,2040,24.849563225,89.9005353380913
Bangladesh,Mymensingh,Jamalpur,Shorishabari,Bausee,2052,24.69021791,90.03056974
Bangladesh,Mymensingh,Jamalpur,Shorishabari,Gunerbari,2051,24.69021791,90.03056974
Bangladesh,Mymensingh,Jamalpur,Shorishabari,Jagannath Ghat,2053,24.69021791,90.03056974
Bangladesh,Mymensingh,Jamalpur,Shorishabari,Jamuna Sar Karkhana,2055,24.69021791,90.03056974
Bangladesh,Mymensingh,Jamalpur,Shorishabari,Pingna,2054,24.69021791,90.03056974
Bangladesh,Mymensingh,Jamalpur,Shorishabari,Shorishabari,2050,24.6822285666667,89.8274655
Bangladesh,Mymensingh,Mymensingh,Bhaluka,Bhaluka,2240,24.3650271428571,90.3818040752182
Bangladesh,Mymensingh,Mymensingh,Fulbaria,Fulbaria,2216,24.6875520416667,90.2885684916667
Bangladesh,Mymensingh,Mymensingh,Gaforgaon,Duttarbazar,2234,24.74380388,90.40524622
Bangladesh,Mymensingh,Mymensingh,Gaforgaon,Gaforgaon,2230,24.4490563333333,90.5571045666667
Bangladesh,Mymensingh,Mymensingh,Gaforgaon,Kandipara,2233,24.74380388,90.40524622
Bangladesh,Mymensingh,Mymensingh,Gaforgaon,Shibganj,2231,24.74380388,90.40524622
Bangladesh,Mymensingh,Mymensingh,Gaforgaon,Usti,2232,24.74380388,90.40524622
Bangladesh,Mymensingh,Mymensingh,Gouripur,Gouripur,2270,24.7354739,90.50951295
Bangladesh,Mymensingh,Mymensingh,Gouripur,Ramgopalpur,2271,24.74380388,90.40524622
Bangladesh,Mymensingh,Mymensingh,Haluaghat,Dhara,2261,24.74380388,90.40524622
Bangladesh,Mymensingh,Mymensingh,Haluaghat,Haluaghat,2260,25.1479862,90.4566429
Bangladesh,Mymensingh,Mymensingh,Haluaghat,Munshirhat,2262,24.74380388,90.40524622
Bangladesh,Mymensingh,Mymensingh,Isshwargonj,Atharabari,2282,24.74380388,90.40524622
Bangladesh,Mymensingh,Mymensingh,Isshwargonj,Isshwargonj,2280,24.6461653045454,90.5999035681818
Bangladesh,Mymensingh,Mymensingh,Isshwargonj,Sohagi,2281,24.74380388,90.40524622
Bangladesh,Mymensingh,Mymensingh,Muktagachha,Muktagachha,2210,24.74380388,90.40524622
Bangladesh,Mymensingh,Mymensingh,Mymensingh Sadar,Agriculture Universi,2202,24.7246130454545,90.4343445909091
Bangladesh,Mymensingh,Mymensingh,Mymensingh Sadar,Biddyaganj,2204,24.74380388,90.40524622
Bangladesh,Mymensingh,Mymensingh,Mymensingh Sadar,Kawatkhali,2201,24.74380388,90.40524622
Bangladesh,Mymensingh,Mymensingh,Mymensingh Sadar,Mymensingh Sadar,2200,24.7555092416667,90.3963557166667
Bangladesh,Mymensingh,Mymensingh,Mymensingh Sadar,Pearpur,2205,24.74380388,90.40524622
Bangladesh,Mymensingh,Mymensingh,Mymensingh Sadar,Shombhuganj,2203,24.74380388,90.40524622
Bangladesh,Mymensingh,Mymensingh,Nandail,Gangail,2291,24.74380388,90.40524622
Bangladesh,Mymensingh,Mymensingh,Nandail,Nandail,2290,24.74380388,90.40524622
Bangladesh,Mymensingh,Mymensingh,Phulpur,Beltia,2251,24.74380388,90.40524622
Bangladesh,Mymensingh,Mymensingh,Phulpur,Phulpur,2250,24.9536235,90.35884325
Bangladesh,Mymensingh,Mymensingh,Phulpur,Tarakanda,2252,24.74380388,90.40524622
Bangladesh,Mymensingh,Mymensingh,Trishal,Ahmadbad,2221,24.6083168,90.45743025
Bangladesh,Mymensingh,Mymensingh,Trishal,Dhala,2223,24.5153396333333,90.5009885333334
Bangladesh,Mymensingh,Mymensingh,Trishal,Ram Amritaganj,2222,24.74380388,90.40524622
Bangladesh,Mymensingh,Mymensingh,Trishal,Trishal,2220,24.6330724,90.4625035
Bangladesh,Mymensingh,Netrokona,Atpara,Atpara,2470,24.7648021,90.9623292
Bangladesh,Mymensingh,Netrokona,Barhatta,Barhatta,2440,24.87280569,90.72271955
Bangladesh,Mymensingh,Netrokona,Dharmapasha,Dharampasha,2450,24.87280569,90.72271955
Bangladesh,Mymensingh,Netrokona,Dhobaura,Dhobaura,2416,24.87280569,90.72271955
Bangladesh,Mymensingh,Netrokona,Dhobaura,Sakoai,2417,24.87280569,90.72271955
Bangladesh,Mymensingh,Netrokona,Kalmakanda,Kalmakanda,2430,25.0773801375,90.8867954625
Bangladesh,Mymensingh,Netrokona,Kendua,Kendua,2480,24.6622868576923,90.8501224307692
Bangladesh,Mymensingh,Netrokona,Khaliajuri,Khaliajhri,2460,24.87280569,90.72271955
Bangladesh,Mymensingh,Netrokona,Khaliajuri,Shaldigha,2462,24.87280569,90.72271955
Bangladesh,Mymensingh,Netrokona,Madan,Madan,2490,24.7165918219512,90.9506457317073
Bangladesh,Mymensingh,Netrokona,Moddhynagar,Moddoynagar,2456,24.87280569,90.72271955
Bangladesh,Mymensingh,Netrokona,Mohanganj,Mohanganj,2446,24.8752016,90.9795084
Bangladesh,Mymensingh,Netrokona,Netrakona Sadar,Baikherhati,2401,24.87280569,90.72271955
Bangladesh,Mymensingh,Netrokona,Netrakona Sadar,Netrakona Sadar,2400,24.8870691,90.7322264
Bangladesh,Mymensingh,Netrokona,Purbadhola,Jaria Jhanjhail,2412,24.87280569,90.72271955
Bangladesh,Mymensingh,Netrokona,Purbadhola,Purbadhola,2410,24.8747697125,90.6897275249942
Bangladesh,Mymensingh,Netrokona,Purbadhola,Shamgonj,2411,24.87280569,90.72271955
Bangladesh,Mymensingh,Netrokona,Susung Durgapur,Susnng Durgapur,2420,24.87280569,90.72271955
Bangladesh,Mymensingh,Sherpur,Bakshigonj,Bakshigonj,2140,24.7638267,89.3897372125077
Bangladesh,Mymensingh,Sherpur,Jhinaigati,Jhinaigati,2120,24.97813358,89.95573831
Bangladesh,Mymensingh,Sherpur,Nakla,Gonopaddi,2151,24.97813358,89.95573831
Bangladesh,Mymensingh,Sherpur,Nakla,Nakla,2150,24.92147445,90.224126975
Bangladesh,Mymensingh,Sherpur,Nalitabari,Hatibandha,2111,24.97813358,89.95573831
Bangladesh,Mymensingh,Sherpur,Nalitabari,Nalitabari,2110,24.97813358,89.95573831
Bangladesh,Mymensingh,Sherpur,Sherpur Shadar,Sherpur Shadar,2100,25.02362738,90.01526512
Bangladesh,Mymensingh,Sherpur,Shribardi,Shribardi,2130,24.97813358,89.95573831
Bangladesh,Rajshahi,Bogra,Alamdighi,Adamdighi,5890,24.70732638,89.50593751
Bangladesh,Rajshahi,Bogra,Alamdighi,Nasharatpur,5892,24.8044345,89.0753687
Bangladesh,Rajshahi,Bogra,Alamdighi,Santahar,5891,24.70732638,89.50593751
Bangladesh,Rajshahi,Bogra,Bogra Sadar,Bogra Canttonment,5801,24.70732638,89.50593751
Bangladesh,Rajshahi,Bogra,Bogra Sadar,Bogra Sadar,5800,24.8518764407407,89.3695843481481
Bangladesh,Rajshahi,Bogra,Dhunat,Dhunat,5850,24.6834148,89.5393988
Bangladesh,Rajshahi,Bogra,Dhunat,Gosaibari,5851,24.70732638,89.50593751
Bangladesh,Rajshahi,Bogra,Dupchachia,Dupchachia,5880,24.894188925,89.126878275
Bangladesh,Rajshahi,Bogra,Dupchachia,Talora,5881,24.70732638,89.50593751
Bangladesh,Rajshahi,Bogra,Gabtoli,Gabtoli,5820,24.70732638,89.50593751
Bangladesh,Rajshahi,Bogra,Gabtoli,Sukhanpukur,5821,24.70732638,89.50593751
Bangladesh,Rajshahi,Bogra,Kahalu,Kahalu,5870,24.70732638,89.50593751
Bangladesh,Rajshahi,Bogra,Nandigram,Nandigram,5860,24.70732638,89.50593751
Bangladesh,Rajshahi,Bogra,Sariakandi,Chandan Baisha,5831,24.70732638,89.50593751
Bangladesh,Rajshahi,Bogra,Sariakandi,Sariakandi,5830,24.70732638,89.50593751
Bangladesh,Rajshahi,Bogra,Sherpur,Chandaikona,5841,24.70732638,89.50593751
Bangladesh,Rajshahi,Bogra,Sherpur,Palli Unnyan Accadem,5842,24.7062006,89.3949899
Bangladesh,Rajshahi,Bogra,Sherpur,Sherpur,5840,24.670249,89.4174000142857
Bangladesh,Rajshahi,Bogra,Shibganj,Shibganj,5810,25.0871927222222,89.3262542333333
Bangladesh,Rajshahi,Bogra,Sonatola,Sonatola,5826,25.0377685333333,89.5017975333333
Bangladesh,Rajshahi,Chapai Nawabganj,Bholahat,Bholahat,6330,24.5998567,88.2850447
Bangladesh,Rajshahi,Chapai Nawabganj,Chapinawabganj Sadar,Amnura,6303,24.5998567,88.2850447
Bangladesh,Rajshahi,Chapai Nawabganj,Chapinawabganj Sadar,Chapinawbganj Sadar,6300,24.5701902125,88.3105802875
Bangladesh,Rajshahi,Chapai Nawabganj,Chapinawabganj Sadar,Rajarampur,6301,24.5998567,88.2850447
Bangladesh,Rajshahi,Chapai Nawabganj,Chapinawabganj Sadar,Ramchandrapur,6302,24.5998567,88.2850447
Bangladesh,Rajshahi,Chapai Nawabganj,Nachol,Mandumala,6311,24.5998567,88.2850447
Bangladesh,Rajshahi,Chapai Nawabganj,Nachol,Nachol,6310,24.5998567,88.2850447
Bangladesh,Rajshahi,Chapai Nawabganj,Rohanpur,Gomashtapur,6321,24.5998567,88.2850447
Bangladesh,Rajshahi,Chapai Nawabganj,Rohanpur,Rohanpur,6320,24.8395979,88.3067714
Bangladesh,Rajshahi,Chapai Nawabganj,Shibganj U.P.O,Kansart,6341,24.74011784,88.18470558
Bangladesh,Rajshahi,Chapai Nawabganj,Shibganj U.P.O,Manaksha,6342,24.5998567,88.2850447
Bangladesh,Rajshahi,Chapai Nawabganj,Shibganj U.P.O,Shibganj U.P.O,6340,24.5998567,88.2850447
Bangladesh,Rajshahi,Joypurhat,Akkelpur,Akklepur,5940,24.9671123,89.0239954
Bangladesh,Rajshahi,Joypurhat,Akkelpur,jamalganj,5941,25.03459895,89.01867195
Bangladesh,Rajshahi,Joypurhat,Akkelpur,Tilakpur,5942,25.06829492,89.00068368
Bangladesh,Rajshahi,Joypurhat,Joypurhat Sadar,Joypurhat Sadar,5900,25.1020678666667,89.0300266333333
Bangladesh,Rajshahi,Joypurhat,kalai,kalai,5930,25.1320678,89.1936939
Bangladesh,Rajshahi,Joypurhat,Khetlal,Khetlal,5920,25.0217179,89.1537995
Bangladesh,Rajshahi,Joypurhat,panchbibi,Panchbibi,5910,25.06829492,89.00068368
Bangladesh,Rajshahi,Naogaon,Ahsanganj,Ahsanganj,6596,24.88118955,88.88834223
Bangladesh,Rajshahi,Naogaon,Ahsanganj,Bandai,6597,24.88118955,88.88834223
Bangladesh,Rajshahi,Naogaon,Badalgachhi,Badalgachhi,6570,25.0004275,88.96419515
Bangladesh,Rajshahi,Naogaon,Dhamuirhat,Dhamuirhat,6580,24.88118955,88.88834223
Bangladesh,Rajshahi,Naogaon,Mahadebpur,Mahadebpur,6530,24.981972925,88.7922615
Bangladesh,Rajshahi,Naogaon,Naogaon Sadar,Naogaon Sadar,6500,24.8104561,88.93455845
Bangladesh,Rajshahi,Naogaon,Niamatpur,Niamatpur,6520,24.88118955,88.88834223
Bangladesh,Rajshahi,Naogaon,Nitpur,Nitpur,6550,24.88118955,88.88834223
Bangladesh,Rajshahi,Naogaon,Nitpur,Panguria,6552,24.88118955,88.88834223
Bangladesh,Rajshahi,Naogaon,Nitpur,Porsa,6551,24.88118955,88.88834223
Bangladesh,Rajshahi,Naogaon,Patnitala,Patnitala,6540,25.0301133058824,88.7699371588235
Bangladesh,Rajshahi,Naogaon,Prasadpur,Balihar,6512,24.88118955,88.88834223
Bangladesh,Rajshahi,Naogaon,Prasadpur,Manda,6511,24.88118955,88.88834223
Bangladesh,Rajshahi,Naogaon,Prasadpur,Prasadpur,6510,24.88118955,88.88834223
Bangladesh,Rajshahi,Naogaon,Raninagar,Kashimpur,6591,24.88118955,88.88834223
Bangladesh,Rajshahi,Naogaon,Raninagar,Raninagar,6590,24.88118955,88.88834223
Bangladesh,Rajshahi,Naogaon,Sapahar,Moduhil,6561,24.88118955,88.88834223
Bangladesh,Rajshahi,Naogaon,Sapahar,Sapahar,6560,24.88118955,88.88834223
Bangladesh,Rajshahi,Natore,Gopalpur UPO,Abdulpur,6422,24.42146113,88.99818043
Bangladesh,Rajshahi,Natore,Gopalpur UPO,Gopalpur U.P.O,6420,24.23382222,89.0164115
Bangladesh,Rajshahi,Natore,Gopalpur UPO,Lalpur S.O,6421,24.42146113,88.99818043
Bangladesh,Rajshahi,Natore,Harua,Baraigram,6432,24.42146113,88.99818043
Bangladesh,Rajshahi,Natore,Harua,Dayarampur,6431,24.2897439,89.008877
Bangladesh,Rajshahi,Natore,Harua,Harua,6430,24.42146113,88.99818043
Bangladesh,Rajshahi,Natore,Hatgurudaspur,Hatgurudaspur,6440,24.3699311611111,89.2326360666667
Bangladesh,Rajshahi,Natore,Laxman,Laxman,6410,24.42146113,88.99818043
Bangladesh,Rajshahi,Natore,Natore Sadar,Baiddyabal Gharia,6402,24.46897535,88.9646194
Bangladesh,Rajshahi,Natore,Natore Sadar,Digapatia,6401,24.42146113,88.99818043
Bangladesh,Rajshahi,Natore,Natore Sadar,Madhnagar,6403,24.42146113,88.99818043
Bangladesh,Rajshahi,Natore,Natore Sadar,Natore Sadar,6400,24.4125594666667,88.9988345809524
Bangladesh,Rajshahi,Natore,Singra,Singra,6450,24.33787938,89.05447614
Bangladesh,Rajshahi,Pabna,Banwarinagar,Banwarinagar,6650,24.1603510857143,89.4496696571428
Bangladesh,Rajshahi,Pabna,Bera,Bera,6680,24.0803835351852,89.6249392157407
Bangladesh,Rajshahi,Pabna,Bera,Kashinathpur,6682,24.0113458857143,89.2903049714286
Bangladesh,Rajshahi,Pabna,Bera,Nakalia,6681,24.0113458857143,89.2903049714286
Bangladesh,Rajshahi,Pabna,Bera,Puran Bharenga,6683,24.0113458857143,89.2903049714286
Bangladesh,Rajshahi,Pabna,Bhangura,Bhangura,6640,24.2615153166667,89.3629577666667
Bangladesh,Rajshahi,Pabna,Chatmohar,Chatmohar,6630,24.0113458857143,89.2903049714286
Bangladesh,Rajshahi,Pabna,Debottar,Debottar,6610,24.0113458857143,89.2903049714286
Bangladesh,Rajshahi,Pabna,Ishwardi,Dhapari,6621,24.0113458857143,89.2903049714286
Bangladesh,Rajshahi,Pabna,Ishwardi,Ishwardi,6620,24.1166606,89.096921
Bangladesh,Rajshahi,Pabna,Ishwardi,Pakshi,6622,24.0113458857143,89.2903049714286
Bangladesh,Rajshahi,Pabna,Ishwardi,Rajapur,6623,24.2304007,89.1199398
Bangladesh,Rajshahi,Pabna,Pabna Sadar,Hamayetpur,6602,24.0113458857143,89.2903049714286
Bangladesh,Rajshahi,Pabna,Pabna Sadar,Kaliko Cotton Mills,6601,24.0113458857143,89.2903049714286
Bangladesh,Rajshahi,Pabna,Pabna Sadar,Pabna Sadar,6600,24.0181026733333,89.23626378
Bangladesh,Rajshahi,Pabna,Sathia,Sathia,6670,23.9967136,89.4736522
Bangladesh,Rajshahi,Pabna,Sujanagar,Sagarkandi,6661,24.0113458857143,89.2903049714286
Bangladesh,Rajshahi,Pabna,Sujanagar,Sujanagar,6660,23.88746165,89.4415391
Bangladesh,Rajshahi,Rajshahi,Bagha,Arani,6281,24.3721738,88.6581758
Bangladesh,Rajshahi,Rajshahi,Bagha,Bagha,6280,24.1851672,88.852382
Bangladesh,Rajshahi,Rajshahi,Bhabaniganj,Bhabaniganj,6250,24.3721738,88.6581758
Bangladesh,Rajshahi,Rajshahi,Bhabaniganj,Taharpur,6251,24.3721738,88.6581758
Bangladesh,Rajshahi,Rajshahi,Charghat,Charghat,6270,24.25921015,88.77033175
Bangladesh,Rajshahi,Rajshahi,Charghat,Sarda,6271,24.2946781555556,88.7419258555556
Bangladesh,Rajshahi,Rajshahi,Durgapur,Durgapur,6240,24.3721738,88.6581758
Bangladesh,Rajshahi,Rajshahi,Godagari,Godagari,6290,24.4664988,88.3192174
Bangladesh,Rajshahi,Rajshahi,Godagari,Premtoli,6291,24.3721738,88.6581758
Bangladesh,Rajshahi,Rajshahi,Khod Mohanpur,Khodmohanpur,6220,24.5516014,88.67261795
Bangladesh,Rajshahi,Rajshahi,Lalitganj,Lalitganj,6210,24.3721738,88.6581758
Bangladesh,Rajshahi,Rajshahi,Lalitganj,Rajshahi Sugar Mills,6211,24.3721738,88.6581758
Bangladesh,Rajshahi,Rajshahi,Lalitganj,Shyampur,6212,24.35962965,88.6768393
Bangladesh,Rajshahi,Rajshahi,Putia,Putia,6260,24.3620799666667,88.8385442333333
Bangladesh,Rajshahi,Rajshahi,Rajshahi Sadar,Binodpur Bazar,6206,24.365627,88.6464467
Bangladesh,Rajshahi,Rajshahi,Rajshahi Sadar,Ghuramara,6100,24.3660778363636,88.6039353909091
Bangladesh,Rajshahi,Rajshahi,Rajshahi Sadar,Kazla,6204,24.3635233333333,88.6329637
Bangladesh,Rajshahi,Rajshahi,Rajshahi Sadar,Rajshahi Canttonment,6202,24.3721738,88.6581758
Bangladesh,Rajshahi,Rajshahi,Rajshahi Sadar,Rajshahi Court,6201,24.3721738,88.6581758
Bangladesh,Rajshahi,Rajshahi,Rajshahi Sadar,Rajshahi Sadar,6000,24.364276,88.5922052
Bangladesh,Rajshahi,Rajshahi,Rajshahi Sadar,Rajshahi University,6205,24.3695524862069,88.6366702448276
Bangladesh,Rajshahi,Rajshahi,Rajshahi Sadar,Sapura,6203,24.395019355,88.604697375
Bangladesh,Rajshahi,Rajshahi,Tanor,Tanor,6230,24.6345985,88.6086019
Bangladesh,Rajshahi,Sirajganj,Baiddya Jam Toil,Baiddya Jam Toil,6730,24.3708582,89.6724287
Bangladesh,Rajshahi,Sirajganj,Belkuchi,Belkuchi,6740,24.30565965,89.6894501
Bangladesh,Rajshahi,Sirajganj,Belkuchi,Enayetpur,6751,24.2243038,89.7057174
Bangladesh,Rajshahi,Sirajganj,Belkuchi,Rajapur,6742,24.4554122,89.7136815666667
Bangladesh,Rajshahi,Sirajganj,Belkuchi,Sohagpur,6741,24.4554122,89.7136815666667
Bangladesh,Rajshahi,Sirajganj,Belkuchi,Sthal,6752,24.4554122,89.7136815666667
Bangladesh,Rajshahi,Sirajganj,Dhangora,Dhangora,6720,24.51549695,89.4578697
Bangladesh,Rajshahi,Sirajganj,Dhangora,Malonga,6721,24.4554122,89.7136815666667
Bangladesh,Rajshahi,Sirajganj,Kazipur,Gandail,6712,24.4554122,89.7136815666667
Bangladesh,Rajshahi,Sirajganj,Kazipur,Kazipur,6710,24.4554122,89.7136815666667
Bangladesh,Rajshahi,Sirajganj,Kazipur,Shuvgachha,6711,24.4554122,89.7136815666667
Bangladesh,Rajshahi,Sirajganj,Shahjadpur,Jamirta,6772,24.4554122,89.7136815666667
Bangladesh,Rajshahi,Sirajganj,Shahjadpur,Kaijuri,6773,24.4554122,89.7136815666667
Bangladesh,Rajshahi,Sirajganj,Shahjadpur,Porjana,6771,24.4554122,89.7136815666667
Bangladesh,Rajshahi,Sirajganj,Shahjadpur,Shahjadpur,6770,24.1760415,89.5974757
Bangladesh,Rajshahi,Sirajganj,Sirajganj Sadar,Raipur,6701,24.4554122,89.7136815666667
Bangladesh,Rajshahi,Sirajganj,Sirajganj Sadar,Rashidabad,6702,24.4554122,89.7136815666667
Bangladesh,Rajshahi,Sirajganj,Sirajganj Sadar,Sirajganj Sadar,6700,24.463441927907,89.706249805814
Bangladesh,Rajshahi,Sirajganj,Tarash,Tarash,6780,24.4591838272727,89.3266980818182
Bangladesh,Rajshahi,Sirajganj,Ullapara,Lahiri Mohanpur,6762,24.4554122,89.7136815666667
Bangladesh,Rajshahi,Sirajganj,Ullapara,Salap,6763,24.4554122,89.7136815666667
Bangladesh,Rajshahi,Sirajganj,Ullapara,Ullapara,6760,24.4554122,89.7136815666667
Bangladesh,Rajshahi,Sirajganj,Ullapara,Ullapara R.S,6761,24.4554122,89.7136815666667
Bangladesh,Rangpur,Dinajpur,Bangla Hili,Bangla Hili,5270,25.6730604666667,88.7049568166667
Bangladesh,Rangpur,Dinajpur,Biral,Biral,5210,25.6730604666667,88.7049568166667
Bangladesh,Rangpur,Dinajpur,Birampur,Birampur,5266,25.39778435,88.925205475
Bangladesh,Rangpur,Dinajpur,Birganj,Birganj,5220,25.63816175,88.75539755
Bangladesh,Rangpur,Dinajpur,Chrirbandar,Chrirbandar,5240,25.6730604666667,88.7049568166667
Bangladesh,Rangpur,Dinajpur,Chrirbandar,Ranirbandar,5241,25.6730604666667,88.7049568166667
Bangladesh,Rangpur,Dinajpur,Dinajpur Sadar,Dinajpur Rajbari,5201,25.6730604666667,88.7049568166667
Bangladesh,Rangpur,Dinajpur,Dinajpur Sadar,Dinajpur Sadar,5200,25.5268570647059,88.7528975602941
Bangladesh,Rangpur,Dinajpur,Khansama,Khansama,5230,25.6730604666667,88.7049568166667
Bangladesh,Rangpur,Dinajpur,Khansama,Pakarhat,5231,25.6403587,88.8209475
Bangladesh,Rangpur,Dinajpur,Maharajganj,Maharajganj,5226,25.6730604666667,88.7049568166667
Bangladesh,Rangpur,Dinajpur,Nababganj,Daudpur,5281,25.39446275,89.0015213
Bangladesh,Rangpur,Dinajpur,Nababganj,Gopalpur,5282,25.6730604666667,88.7049568166667
Bangladesh,Rangpur,Dinajpur,Nababganj,Nababganj,5280,25.6730604666667,88.7049568166667
Bangladesh,Rangpur,Dinajpur,Osmanpur,Ghoraghat,5291,25.6730604666667,88.7049568166667
Bangladesh,Rangpur,Dinajpur,Osmanpur,Osmanpur,5290,25.6730604666667,88.7049568166667
Bangladesh,Rangpur,Dinajpur,Parbatipur,Parbatipur,5250,25.5341331833333,88.8804206833333
Bangladesh,Rangpur,Dinajpur,Phulbari,Phulbari,5260,25.43357643,88.88883003
Bangladesh,Rangpur,Dinajpur,Setabganj,Setabganj,5216,25.51871515,88.748003
Bangladesh,Rangpur,Gaibandha,Bonarpara,Bonarpara,5750,25.28513384,89.55612415
Bangladesh,Rangpur,Gaibandha,Bonarpara,saghata,5751,25.28513384,89.55612415
Bangladesh,Rangpur,Gaibandha,Gaibandha Sadar,Gaibandha Sadar,5700,25.36568756875,89.5226116125
Bangladesh,Rangpur,Gaibandha,Gobindaganj,Gobindhaganj,5740,25.1357294,89.4000936
Bangladesh,Rangpur,Gaibandha,Gobindaganj,Mahimaganj,5741,25.28513384,89.55612415
Bangladesh,Rangpur,Gaibandha,Palashbari,Palashbari,5730,25.28513384,89.55612415
Bangladesh,Rangpur,Gaibandha,Phulchhari,Bharatkhali,5761,25.28513384,89.55612415
Bangladesh,Rangpur,Gaibandha,Phulchhari,Phulchhari,5760,25.28513384,89.55612415
Bangladesh,Rangpur,Gaibandha,Saadullapur,Naldanga,5711,25.28513384,89.55612415
Bangladesh,Rangpur,Gaibandha,Saadullapur,Saadullapur,5710,25.01331225,89.3692075193705
Bangladesh,Rangpur,Gaibandha,Sundarganj,Bamandanga,5721,25.5161647,89.4686408
Bangladesh,Rangpur,Gaibandha,Sundarganj,Sundarganj,5720,25.28513384,89.55612415
Bangladesh,Rangpur,Kurigram,Bhurungamari,Bhurungamari,5670,25.8241935375,89.6224078375
Bangladesh,Rangpur,Kurigram,Chilmari,Chilmari,5630,25.6971500808824,89.6446863411765
Bangladesh,Rangpur,Kurigram,Chilmari,Jorgachh,5631,25.8241935375,89.6224078375
Bangladesh,Rangpur,Kurigram,Kurigram Sadar,Kurigram Sadar,5600,25.7560388710526,89.5968726710526
Bangladesh,Rangpur,Kurigram,Kurigram Sadar,Pandul,5601,25.7600071,89.60722615
Bangladesh,Rangpur,Kurigram,Kurigram Sadar,Phulbari,5680,25.8241935375,89.6224078375
Bangladesh,Rangpur,Kurigram,Nageshwar,Nageshwar,5660,25.88704625,89.6593426
Bangladesh,Rangpur,Kurigram,Rajarhat,Nazimkhan,5611,25.8241935375,89.6224078375
Bangladesh,Rangpur,Kurigram,Rajarhat,Rajarhat,5610,25.8241935375,89.6224078375
Bangladesh,Rangpur,Kurigram,Rajibpur,Rajibpur,5650,25.8241935375,89.6224078375
Bangladesh,Rangpur,Kurigram,Roumari,Roumari,5640,25.73029925,89.73931875
Bangladesh,Rangpur,Kurigram,Ulipur,Bazarhat,5621,25.8241935375,89.6224078375
Bangladesh,Rangpur,Kurigram,Ulipur,Ulipur,5620,25.8241935375,89.6224078375
Bangladesh,Rangpur,Lalmonirhat,Aditmari,Aditmari,5510,25.9681328,89.20510475
Bangladesh,Rangpur,Lalmonirhat,Hatibandha,Hatibandha,5530,25.9256814625,89.3780428765059
Bangladesh,Rangpur,Lalmonirhat,Lalmonirhat Sadar,Kulaghat SO,5502,25.97678883,89.38944242
Bangladesh,Rangpur,Lalmonirhat,Lalmonirhat Sadar,Lalmonirhat Sadar,5500,25.9126091925926,89.4361532888889
Bangladesh,Rangpur,Lalmonirhat,Lalmonirhat Sadar,Moghalhat,5501,25.97678883,89.38944242
Bangladesh,Rangpur,Lalmonirhat,Patgram,Baura,5541,25.97678883,89.38944242
Bangladesh,Rangpur,Lalmonirhat,Patgram,Burimari,5542,25.97678883,89.38944242
Bangladesh,Rangpur,Lalmonirhat,Patgram,Patgram,5540,25.97678883,89.38944242
Bangladesh,Rangpur,Lalmonirhat,Tushbhandar,Tushbhandar,5520,25.97678883,89.38944242
Bangladesh,Rangpur,Nilphamari,Dimla,Dimla,5350,26.2089576235294,88.9080739
Bangladesh,Rangpur,Nilphamari,Dimla,Ghaga Kharibari,5351,26.1941476333333,88.9056140666667
Bangladesh,Rangpur,Nilphamari,Domar,Chilahati,5341,25.92901065,88.7966728375
Bangladesh,Rangpur,Nilphamari,Domar,Domar,5340,25.92901065,88.7966728375
Bangladesh,Rangpur,Nilphamari,Jaldhaka,Jaldhaka,5330,25.92901065,88.7966728375
Bangladesh,Rangpur,Nilphamari,Kishoriganj,Kishoriganj,5320,25.92901065,88.7966728375
Bangladesh,Rangpur,Nilphamari,Nilphamari Sadar,Nilphamari Sadar,5300,25.91491325,88.8660223857143
Bangladesh,Rangpur,Nilphamari,Nilphamari Sadar,Nilphamari Sugar Mil,5301,25.92901065,88.7966728375
Bangladesh,Rangpur,Nilphamari,Syedpur,Syedpur,5310,25.7806427,88.8931204
Bangladesh,Rangpur,Nilphamari,Syedpur,Syedpur Upashahar,5311,25.92901065,88.7966728375
Bangladesh,Rangpur,Panchagarh,Boda,Boda,5010,26.2771216,88.5622984
Bangladesh,Rangpur,Panchagarh,Chotto Dab,Chotto Dab,5040,26.31780465,88.55251016
Bangladesh,Rangpur,Panchagarh,Chotto Dab,Mirjapur,5041,26.31780465,88.55251016
Bangladesh,Rangpur,Panchagarh,Dabiganj,Dabiganj,5020,26.31780465,88.55251016
Bangladesh,Rangpur,Panchagarh,Panchagra Sadar,Panchagar Sadar,5000,26.31780465,88.55251016
Bangladesh,Rangpur,Panchagarh,Tetulia,Tetulia,5030,26.31780465,88.55251016
Bangladesh,Rangpur,Rangpur,Badarganj,Badarganj,5430,25.6324833166667,89.18128135
Bangladesh,Rangpur,Rangpur,Badarganj,Shyampur,5431,25.37523446,89.30047667
Bangladesh,Rangpur,Rangpur,Gangachara,Gangachara,5410,25.37523446,89.30047667
Bangladesh,Rangpur,Rangpur,Kaunia,Haragachh,5441,25.37523446,89.30047667
Bangladesh,Rangpur,Rangpur,Kaunia,Kaunia,5440,25.682456925,89.339498659744
Bangladesh,Rangpur,Rangpur,Mithapukur,Mithapukur,5460,25.5963060422222,89.2545701266667
Bangladesh,Rangpur,Rangpur,Pirgachha,Pirgachha,5450,25.37523446,89.30047667
Bangladesh,Rangpur,Rangpur,Rangpur Sadar,Alamnagar,5402,25.6531815333333,89.2475
Bangladesh,Rangpur,Rangpur,Rangpur Sadar,Mahiganj,5403,25.6484079333333,89.2623539833333
Bangladesh,Rangpur,Rangpur,Rangpur Sadar,Rangpur Cadet Colleg,5404,25.37523446,89.30047667
Bangladesh,Rangpur,Rangpur,Rangpur Sadar,Rangpur Carmiecal Col,5405,25.37523446,89.30047667
Bangladesh,Rangpur,Rangpur,Rangpur Sadar,Rangpur Sadar,5400,25.6557890212121,89.2461598656566
Bangladesh,Rangpur,Rangpur,Rangpur Sadar,Rangpur Upa-Shahar,5401,25.6607579722222,89.2383112944444
Bangladesh,Rangpur,Rangpur,Taraganj,Taraganj,5420,25.6776307,89.1707422
Bangladesh,Rangpur,Thakurgaon,Baliadangi,Baliadangi,5140,26.0861569666667,88.2768845666667
Bangladesh,Rangpur,Thakurgaon,Baliadangi,Lahiri,5141,26.1452089,88.295206
Bangladesh,Rangpur,Thakurgaon,Jibanpur,Jibanpur,5130,26.04679727,88.4801891
Bangladesh,Rangpur,Thakurgaon,Pirganj,Pirganj,5470,25.852289,88.3617524
Bangladesh,Rangpur,Thakurgaon,Pirganj,Pirganj,5110,25.8873183,88.38409915
Bangladesh,Rangpur,Thakurgaon,Rani Sankail,Nekmarad,5121,25.988228,88.2626253
Bangladesh,Rangpur,Thakurgaon,Rani Sankail,Rani Sankail,5120,25.89865959,88.261685085
Bangladesh,Rangpur,Thakurgaon,Thakurgaon Sadar,Ruhia,5103,26.1703896,88.4115072
Bangladesh,Rangpur,Thakurgaon,Thakurgaon Sadar,Shibganj,5102,25.9619383,88.3691181
Bangladesh,Rangpur,Thakurgaon,Thakurgaon Sadar,Thakurgaon Road,5101,26.0355135,88.4249049
Bangladesh,Rangpur,Thakurgaon,Thakurgaon Sadar,Thakurgaon Sadar,5100,26.0302025489362,88.4656800021277
Bangladesh,Sylhet,Habiganj,Azmireeganj,Azmireeganj,3360,24.36452866,91.4141695
Bangladesh,Sylhet,Habiganj,Bahubal,Bahubal,3310,24.3139180125,91.4255434807594
Bangladesh,Sylhet,Habiganj,Baniachang,Baniachang,3350,24.36452866,91.4141695
Bangladesh,Sylhet,Habiganj,Baniachang,Jatrapasha,3351,24.36452866,91.4141695
Bangladesh,Sylhet,Habiganj,Baniachang,Kadirganj,3352,24.36452866,91.4141695
Bangladesh,Sylhet,Habiganj,Chunarughat,Chandpurbagan,3321,24.36452866,91.4141695
Bangladesh,Sylhet,Habiganj,Chunarughat,Chunarughat,3320,24.36452866,91.4141695
Bangladesh,Sylhet,Habiganj,Chunarughat,Narapati,3322,24.23619848,91.52067026
Bangladesh,Sylhet,Habiganj,Hobiganj Sadar,Gopaya,3302,24.36452866,91.4141695
Bangladesh,Sylhet,Habiganj,Hobiganj Sadar,Hobiganj Sadar,3300,24.3714278111111,91.4174335777778
Bangladesh,Sylhet,Habiganj,Hobiganj Sadar,Shaestaganj,3301,24.2762686,91.4456677
Bangladesh,Sylhet,Habiganj,Kalauk,Kalauk,3340,24.36452866,91.4141695
Bangladesh,Sylhet,Habiganj,Kalauk,Lakhai,3341,24.36452866,91.4141695
Bangladesh,Sylhet,Habiganj,Madhabpur,Itakhola,3331,24.36452866,91.4141695
Bangladesh,Sylhet,Habiganj,Madhabpur,Madhabpur,3330,24.0974994666667,91.2913647
Bangladesh,Sylhet,Habiganj,Madhabpur,Saihamnagar,3333,24.1716779,91.3535235
Bangladesh,Sylhet,Habiganj,Madhabpur,Shahajibazar,3332,24.238935225,91.4018262
Bangladesh,Sylhet,Habiganj,Nabiganj,Digalbak,3373,24.36452866,91.4141695
Bangladesh,Sylhet,Habiganj,Nabiganj,Golduba,3372,24.36452866,91.4141695
Bangladesh,Sylhet,Habiganj,Nabiganj,Goplarbazar,3371,24.36452866,91.4141695
Bangladesh,Sylhet,Habiganj,Nabiganj,Inathganj,3374,24.6512266,91.5461324
Bangladesh,Sylhet,Habiganj,Nabiganj,Nabiganj,3370,24.572397625,91.5233597333333
Bangladesh,Sylhet,Moulvibazar,Baralekha,Baralekha,3250,24.7091354,92.1898289833333
Bangladesh,Sylhet,Moulvibazar,Baralekha,Dhakkhinbag,3252,24.59201324,91.77426416
Bangladesh,Sylhet,Moulvibazar,Baralekha,Juri,3251,24.59201324,91.77426416
Bangladesh,Sylhet,Moulvibazar,Baralekha,Purbashahabajpur,3253,24.59201324,91.77426416
Bangladesh,Sylhet,Moulvibazar,Kamalganj,Kamalganj,3220,24.3282719,91.8832927666667
Bangladesh,Sylhet,Moulvibazar,Kamalganj,Keramatnaga,3221,24.59201324,91.77426416
Bangladesh,Sylhet,Moulvibazar,Kamalganj,Munshibazar,3224,24.59201324,91.77426416
Bangladesh,Sylhet,Moulvibazar,Kamalganj,Patrakhola,3222,24.59201324,91.77426416
Bangladesh,Sylhet,Moulvibazar,Kamalganj,Shamsher Nagar,3223,24.3444182833333,91.9773905888889
Bangladesh,Sylhet,Moulvibazar,Kulaura,Baramchal,3237,24.59201324,91.77426416
Bangladesh,Sylhet,Moulvibazar,Kulaura,Kajaldhara,3234,24.59201324,91.77426416
Bangladesh,Sylhet,Moulvibazar,Kulaura,Karimpur,3235,24.59201324,91.77426416
Bangladesh,Sylhet,Moulvibazar,Kulaura,Kulaura,3230,24.59201324,91.77426416
Bangladesh,Sylhet,Moulvibazar,Kulaura,Langla,3232,24.59201324,91.77426416
Bangladesh,Sylhet,Moulvibazar,Kulaura,Prithimpasha,3233,24.59201324,91.77426416
Bangladesh,Sylhet,Moulvibazar,Kulaura,Tillagaon,3231,24.43995145,91.95459135
Bangladesh,Sylhet,Moulvibazar,Moulvibazar Sadar,Afrozganj,3203,24.392826995,91.7569607380146
Bangladesh,Sylhet,Moulvibazar,Moulvibazar Sadar,Barakapan,3201,24.59201324,91.77426416
Bangladesh,Sylhet,Moulvibazar,Moulvibazar Sadar,Monumukh,3202,24.59201324,91.77426416
Bangladesh,Sylhet,Moulvibazar,Moulvibazar Sadar,Moulvibazar Sadar,3200,24.4851732176471,91.7630971294118
Bangladesh,Sylhet,Moulvibazar,Rajnagar,Rajnagar,3240,24.59201324,91.77426416
Bangladesh,Sylhet,Moulvibazar,Srimangal,Kalighat,3212,24.2674884333333,91.7315268
Bangladesh,Sylhet,Moulvibazar,Srimangal,Khejurichhara,3213,24.22406705,91.69258605
Bangladesh,Sylhet,Moulvibazar,Srimangal,Narain Chora,3211,24.59201324,91.77426416
Bangladesh,Sylhet,Moulvibazar,Srimangal,Satgaon,3214,24.4132198724138,91.6284471517241
Bangladesh,Sylhet,Moulvibazar,Srimangal,Srimangal,3210,24.310623237931,91.7355920896552
Bangladesh,Sylhet,Sunamganj,Bishamsarpur,Bishamsapur,3010,24.95794666,91.57225574
Bangladesh,Sylhet,Sunamganj,Chhatak,Chhatak,3080,24.95794666,91.57225574
Bangladesh,Sylhet,Sunamganj,Chhatak,Chhatak Cement Facto,3081,24.95794666,91.57225574
Bangladesh,Sylhet,Sunamganj,Chhatak,Chhatak Paper Mills,3082,24.95794666,91.57225574
Bangladesh,Sylhet,Sunamganj,Chhatak,Chourangi Bazar,3893,24.95794666,91.57225574
Bangladesh,Sylhet,Sunamganj,Chhatak,Gabindaganj,3083,24.95794666,91.57225574
Bangladesh,Sylhet,Sunamganj,Chhatak,Gabindaganj Natun Ba,3084,24.9275155357143,91.5459583214286
Bangladesh,Sylhet,Sunamganj,Chhatak,Islamabad,3088,24.95794666,91.57225574
Bangladesh,Sylhet,Sunamganj,Chhatak,jahidpur,3087,24.95794666,91.57225574
Bangladesh,Sylhet,Sunamganj,Chhatak,Khurma,3085,24.95794666,91.57225574
Bangladesh,Sylhet,Sunamganj,Chhatak,Moinpur,3086,24.95794666,91.57225574
Bangladesh,Sylhet,Sunamganj,Dhirai Chandpur,Dhirai Chandpur,3040,24.95794666,91.57225574
Bangladesh,Sylhet,Sunamganj,Dhirai Chandpur,Jagdal,3041,24.95794666,91.57225574
Bangladesh,Sylhet,Sunamganj,Duara bazar,Duara bazar,3070,25.0541405,91.5573406
Bangladesh,Sylhet,Sunamganj,Ghungiar,Ghungiar,3050,24.95794666,91.57225574
Bangladesh,Sylhet,Sunamganj,Jagnnathpur,Atuajan,3062,24.95794666,91.57225574
Bangladesh,Sylhet,Sunamganj,Jagnnathpur,Hasan Fatemapur,3063,24.95794666,91.57225574
Bangladesh,Sylhet,Sunamganj,Jagnnathpur,Jagnnathpur,3060,24.95794666,91.57225574
Bangladesh,Sylhet,Sunamganj,Jagnnathpur,Rasulganj,3064,24.95794666,91.57225574
Bangladesh,Sylhet,Sunamganj,Jagnnathpur,Shiramsi,3065,24.95794666,91.57225574
Bangladesh,Sylhet,Sunamganj,Jagnnathpur,Syedpur,3061,24.95794666,91.57225574
Bangladesh,Sylhet,Sunamganj,Sachna,Sachna,3020,24.95794666,91.57225574
Bangladesh,Sylhet,Sunamganj,Sunamganj Sadar,Pagla,3001,24.95794666,91.57225574
Bangladesh,Sylhet,Sunamganj,Sunamganj Sadar,Patharia,3002,24.95794666,91.57225574
Bangladesh,Sylhet,Sunamganj,Sunamganj Sadar,Sunamganj Sadar,3000,25.0019050125,91.4547981495782
Bangladesh,Sylhet,Sunamganj,Tahirpur,Tahirpur,3030,24.95794666,91.57225574
Bangladesh,Sylhet,Sylhet,Balaganj,Balaganj,3120,24.89914915,91.8785692
Bangladesh,Sylhet,Sylhet,Balaganj,Begumpur,3125,24.89914915,91.8785692
Bangladesh,Sylhet,Sylhet,Balaganj,Brahman Shashon,3122,24.89914915,91.8785692
Bangladesh,Sylhet,Sylhet,Balaganj,Gaharpur,3128,24.89914915,91.8785692
Bangladesh,Sylhet,Sylhet,Balaganj,Goala Bazar,3124,24.89914915,91.8785692
Bangladesh,Sylhet,Sylhet,Balaganj,Karua,3121,24.89914915,91.8785692
Bangladesh,Sylhet,Sylhet,Balaganj,Kathal Khair,3127,24.89914915,91.8785692
Bangladesh,Sylhet,Sylhet,Balaganj,Natun Bazar,3129,24.89914915,91.8785692
Bangladesh,Sylhet,Sylhet,Balaganj,Omarpur,3126,24.6653058,91.6817542
Bangladesh,Sylhet,Sylhet,Balaganj,Tajpur,3123,24.89914915,91.8785692
Bangladesh,Sylhet,Sylhet,Bianibazar,Bianibazar,3170,24.8497413444444,92.1585146333333
Bangladesh,Sylhet,Sylhet,Bianibazar,Churkai,3175,24.89914915,91.8785692
Bangladesh,Sylhet,Sylhet,Bianibazar,jaldup,3171,24.89914915,91.8785692
Bangladesh,Sylhet,Sylhet,Bianibazar,Kurar bazar,3173,24.89914915,91.8785692
Bangladesh,Sylhet,Sylhet,Bianibazar,Mathiura,3172,24.89914915,91.8785692
Bangladesh,Sylhet,Sylhet,Bianibazar,Salia bazar,3174,24.89914915,91.8785692
Bangladesh,Sylhet,Sylhet,Bishwanath,Bishwanath,3130,24.89914915,91.8785692
Bangladesh,Sylhet,Sylhet,Bishwanath,Dashghar,3131,24.89914915,91.8785692
Bangladesh,Sylhet,Sylhet,Bishwanath,Deokalas,3133,24.89914915,91.8785692
Bangladesh,Sylhet,Sylhet,Bishwanath,Doulathpur,3132,24.89914915,91.8785692
Bangladesh,Sylhet,Sylhet,Bishwanath,Singer kanch,3134,24.89914915,91.8785692
Bangladesh,Sylhet,Sylhet,Fenchuganj,Fenchuganj,3116,24.89914915,91.8785692
Bangladesh,Sylhet,Sylhet,Fenchuganj,Fenchuganj SareKarkh,3117,24.89914915,91.8785692
Bangladesh,Sylhet,Sylhet,Goainhat,Chiknagul,3152,24.89914915,91.8785692
Bangladesh,Sylhet,Sylhet,Goainhat,Goainhat,3150,24.89914915,91.8785692
Bangladesh,Sylhet,Sylhet,Goainhat,Jaflong,3151,24.89914915,91.8785692
Bangladesh,Sylhet,Sylhet,Golapganj,banigram,3164,24.89914915,91.8785692
Bangladesh,Sylhet,Sylhet,Golapganj,Chandanpur,3165,24.89914915,91.8785692
Bangladesh,Sylhet,Sylhet,Golapganj,Dakkhin Bhadashore,3162,24.89914915,91.8785692
Bangladesh,Sylhet,Sylhet,Golapganj,Dhaka Dakkhin,3161,24.89914915,91.8785692
Bangladesh,Sylhet,Sylhet,Golapganj,Gopalgannj,3160,24.89914915,91.8785692
Bangladesh,Sylhet,Sylhet,Golapganj,Ranaping,3163,24.3139180125,91.4255434807594
Bangladesh,Sylhet,Sylhet,Jaintapur,Jainthapur,3156,24.89914915,91.8785692
Bangladesh,Sylhet,Sylhet,Jakiganj,Ichhamati,3191,24.89914915,91.8785692
Bangladesh,Sylhet,Sylhet,Jakiganj,Jakiganj,3190,24.9180054166667,92.4541366
Bangladesh,Sylhet,Sylhet,Kanaighat,Chatulbazar,3181,24.89914915,91.8785692
Bangladesh,Sylhet,Sylhet,Kanaighat,Gachbari,3183,24.89914915,91.8785692
Bangladesh,Sylhet,Sylhet,Kanaighat,Kanaighat,3180,24.89914915,91.8785692
Bangladesh,Sylhet,Sylhet,Kanaighat,Manikganj,3182,24.89914915,91.8785692
Bangladesh,Sylhet,Sylhet,Kompanyganj,Kompanyganj,3140,24.89914915,91.8785692
Bangladesh,Sylhet,Sylhet,Sylhet Sadar,Birahimpur,3106,24.89914915,91.8785692
Bangladesh,Sylhet,Sylhet,Sylhet Sadar,Jalalabad,3107,24.89914915,91.8785692
Bangladesh,Sylhet,Sylhet,Sylhet Sadar,Jalalabad Cantoment,3104,24.89914915,91.8785692
Bangladesh,Sylhet,Sylhet,Sylhet Sadar,Kadamtali,3111,24.89914915,91.8785692
Bangladesh,Sylhet,Sylhet,Sylhet Sadar,Kamalbazer,3112,24.89914915,91.8785692
Bangladesh,Sylhet,Sylhet,Sylhet Sadar,Khadimnagar,3103,24.89914915,91.8785692
Bangladesh,Sylhet,Sylhet,Sylhet Sadar,Lalbazar,3113,24.89914915,91.8785692
Bangladesh,Sylhet,Sylhet,Sylhet Sadar,Mogla,3108,24.89914915,91.8785692
Bangladesh,Sylhet,Sylhet,Sylhet Sadar,Ranga Hajiganj,3109,24.89914915,91.8785692
Bangladesh,Sylhet,Sylhet,Sylhet Sadar,Shahajalal Science &,3114,24.9199724545455,91.8320477545455
Bangladesh,Sylhet,Sylhet,Sylhet Sadar,Silam,3105,24.8648679666667,91.8569902
Bangladesh,Sylhet,Sylhet,Sylhet Sadar,Sylhe Sadar,3100,24.8970082090909,91.8696271295454
Bangladesh,Sylhet,Sylhet,Sylhet Sadar,Sylhet Biman Bondar,3102,24.89914915,91.8785692
Bangladesh,Sylhet,Sylhet,Sylhet Sadar,Sylhet Cadet Col,3101,24.89914915,91.8785692
